IDSensor,IDStation,Pollutant,NameStation,Altitude,Province,City,DateStart,DateStop,Latitude,Longitude,ARPA_stat_type,ARPA_zone
17286,1374,NO2,Monza Parco,181,MB,Monza,2013-05-01,NA,45.60123219955139,9.27507265782848,SB,Agg_MI
17290,1374,PM10,Monza Parco,181,MB,Monza,2013-02-15,NA,45.60123219955139,9.27507265782848,SB,Agg_MI
17285,1374,NOx,Monza Parco,181,MB,Monza,2013-05-01,NA,45.60123219955139,9.27507265782848,SB,Agg_MI
17288,1374,Ozone,Monza Parco,181,MB,Monza,2013-02-09,NA,45.60123219955139,9.27507265782848,SB,Agg_MI
10431,1264,NOx,Sondrio - Via Paribelli,290,SO,Sondrio,2008-11-11,NA,46.167852440665115,9.879209924469903,UB,D
9968,679,NOx,Valmadrera - Via Pozzi,247,LC,Valmadrera,2006-02-16,NA,45.842207261022544,9.351658166127958,SB,A
20197,598,PM10,San Rocco Al Porto - Via Matteotti,50,LO,San Rocco Al Porto,2002-01-01,NA,45.081986696978625,9.70078817718398,SB,B
5611,608,NO2,Codogno - Via Trento,59,LO,Codogno,2000-01-13,NA,45.15937280234111,9.69814824935254,UT,B
10347,670,PM2.5,Mantova San Agnese,22,MN,Mantova,2007-12-21,NA,45.16056833010576,10.79556411370788,UB,A
5543,540,NO2,Garbagnate Milanese - Via Villoresi,175,MI,Garbagnate Milanese,1992-12-11,2018-07-30,45.5717162655023,9.07824159056828,NA,NA
6889,667,NO2,Marmirolo Bosco Fontana,22,MN,Marmirolo,2003-01-01,2018-07-30,45.20817903938493,10.74263625117323,NA,NA
10016,664,Sulfur_dioxide,Mantova - Piazza Gramsci,18,MN,Mantova,2006-10-30,NA,45.151743379576594,10.78140770009565,UT,A
6372,503,NOx,Milano - Piazza Zavattari,122,MI,Milano,1980-09-18,2018-07-30,45.47606340509791,9.141786267186658,NA,NA
5825,531,CO,Pioltello Limito,114,MI,Pioltello,1994-11-11,NA,45.48363035323249,9.327360033215145,UB,Agg_MI
10013,576,PM2.5,Merate - Via Madonna Di Loreto,279,LC,Merate,2006-09-10,NA,45.69795198970243,9.406190938686596,UT,Agg_MI
5618,529,Sulfur_dioxide,Cinisello Balsamo - Via Lincoln,149,MI,Cinisello Balsamo,1988-08-10,1999-05-04,45.55232578741208,9.227764233272634,UT,Agg_MI
12610,546,Lead,Magenta - Via Turati,137,MI,Magenta,2008-04-15,NA,45.462415791106615,8.880210433125571,UT,A
5534,531,NO2,Pioltello Limito,114,MI,Pioltello,1989-05-23,NA,45.48363035323249,9.327360033215145,UB,Agg_MI
6790,653,NOx,Brescia - Via Ziziola,125,BS,Brescia,1997-10-15,2018-07-30,45.51455919056731,10.218463502801265,NA,NA
6657,552,PM_tot,Varese - Via Vidoletti,425,VA,Varese,1991-12-30,2006-04-30,45.83690077655548,8.80392612667495,UB,A
5548,545,NO2,Motta Visconti - Via De Gasperi,100,MI,Motta Visconti,1998-03-17,NA,45.281956197427846,8.988562726793255,SB,B
10343,708,PM10,Parona - Via Della Miseria,112,PV,Parona,2007-09-28,NA,45.281935610357905,8.754334594539825,UI,B
10095,697,NOx,Borgofranco Sul Po - Località Bonizzo,14,MN,Borgofranco Sul Po,2006-11-29,NA,45.04650153816735,11.18093581912755,SB,B
6820,656,PM_tot,Gambara - Via Parma,47,BS,Gambara,1990-02-16,2004-08-10,45.24954362474624,10.299119496064078,SB,B
10291,681,Ammonia,Moggio - Località Penscei,1194,LC,Moggio,2007-03-17,NA,45.91278752030292,9.497538167653424,RB,C
5513,510,NO2,Inzago - Viale Gramsci,138,MI,Inzago,1991-01-01,2018-01-01,45.539768856661,9.486885367436152,NA,NA
10259,569,Benzene,Sondrio - Via Mazzini,307,SO,Sondrio,2006-09-19,NA,46.16796681227828,9.87014407497457,UT,D
9925,677,Ozone,Cremona - Via Fatebenefratelli,43,CR,Cremona,2006-04-08,NA,45.14254063221695,10.043836158369393,UB,A
12590,669,Cadmium,Brescia Villaggio Sereno,70,BS,Brescia,2008-04-01,NA,45.513038818653754,10.19194188877931,UB,Agg_BS
6296,508,NOx,Cassano D'Adda - Via Di Vona,133,MI,Cassano D'Adda,1984-12-14,2018-01-01,45.52000867032165,9.512220968943545,NA,NA
5504,501,NO2,Milano - Via Marche,129,MI,Milano,1980-09-18,NA,45.49631644365102,9.190933555313624,UT,Agg_MI
10407,1263,NO2,Villa Di Serio - Via Glera,280,BG,Villa Di Serio,2008-10-08,2018-07-30,45.73589144532835,9.738394788043442,NA,NA
6306,518,NOx,Galliate Strada Del Piaggio,153,NO,Galliate,1992-12-07,2017-01-01,45.46804407930967,8.73676932023362,NA,NA
5511,508,NO2,Cassano D'Adda - Via Di Vona,133,MI,Cassano D'Adda,1984-12-17,2018-01-01,45.52000867032165,9.512220968943545,NA,NA
6258,578,NOx,Varenna - Via Polvani,220,LC,Varenna,1991-01-01,2008-02-07,46.00942283474235,9.285304059583972,NA,NA
6358,538,NOx,Settimo Milanese - Via Della Libertà,132,MI,Settimo Milanese,1992-05-27,2018-07-30,45.480268785554635,9.056862031759728,NA,NA
12626,705,Cadmium,Milano Pascal Città Studi,122,MI,Milano,2008-04-01,NA,45.47899606168744,9.235491038497502,UB,Agg_MI
30158,649,PM2.5,Brescia - Via Broletto,149,BS,Brescia,2013-12-13,NA,45.540057846971386,10.222818449274216,UT,Agg_BS
5852,553,CO,Saronno - Via Marconi,211,VA,Saronno,1993-06-15,2012-01-04,45.62396968592561,9.037226525673523,NA,NA
10406,1263,NOx,Villa Di Serio - Via Glera,280,BG,Villa Di Serio,2008-10-08,2018-07-30,45.73589144532835,9.738394788043442,NA,NA
5649,543,Sulfur_dioxide,Vimercate - Via Dell'Ospedale,194,MB,Vimercate,1994-12-23,2003-10-16,45.614920870442226,9.368396161785157,NA,NA
5954,627,Ozone,Cremona - Piazza Cadorna,39,CR,Cremona,1997-12-11,2010-08-30,45.13194691285173,10.015741513336042,UT,A
5603,600,NO2,Lodi - Via Vignati,80,LO,Lodi,1999-12-30,NA,45.30601298752377,9.48526286320174,UT,A
17041,583,Lead,Bergamo - Via Meucci,249,BG,Bergamo,2012-01-13,NA,45.69103740547214,9.643650579461385,UB,Agg_BG
10586,677,PM2.5,Cremona - Via Fatebenefratelli,43,CR,Cremona,2010-07-28,NA,45.14254063221695,10.043836158369393,UB,A
6212,596,NOx,Osio Sotto - Via Per Levate,182,BG,Osio Sotto,2000-04-06,NA,45.62055567939559,9.611737821812373,SB,Agg_BG
5788,590,CO,Ponte San Pietro - Via Moiolo,225,BG,Ponte San Pietro,1990-07-04,2011-09-12,45.696081938463465,9.587784018279269,NA,NA
5847,558,CO,Busto Arsizio Accam,206,VA,Busto Arsizio,1998-12-06,NA,45.582894292717725,8.842165456706075,SB,Agg_MI
10405,584,PM10,Bergamo - Via Garibaldi,249,BG,Bergamo,2008-12-19,NA,45.69568034432694,9.66124914606551,UT,Agg_BG
10333,709,NOx,Vigevano - Via Valletta,109,PV,Vigevano,2007-08-08,NA,45.303607869655714,8.844804609965438,UB,A
5803,577,CO,Calolziocorte - Corso Dante,215,LC,Calolziocorte,1994-11-28,2012-01-04,45.80209550514092,9.429467320277878,NA,NA
5544,541,NO2,Limbiate - Via Turati,181,MB,Limbiate,1994-11-24,2018-07-30,45.597443498230305,9.125948942472387,NA,NA
10083,695,PM10,Ponti Sul Mincio - Via San Martino,113,MN,Ponti Sul Mincio,2006-12-20,NA,45.41277169168634,10.683357343786835,SB,B
6959,565,PM10,Cantù - Via Meucci,369,CO,Cantù,1999-01-01,NA,45.73083672267427,9.125734327022926,SB,Agg_MI
5669,583,Sulfur_dioxide,Bergamo - Via Meucci,249,BG,Bergamo,1989-06-01,2003-06-03,45.69103740547214,9.643650579461385,UB,Agg_BG
6926,572,PM10,Morbegno - Via Cortivacci,262,SO,Morbegno,1999-12-14,NA,46.132282960003735,9.566179893984474,UB,D
10143,701,NO2,Ostiglia - Via Colombo,14,MN,Ostiglia,2006-11-29,2017-01-01,45.073311155731965,11.137034007299844,NA,NA
6869,642,Benzene,Pavia - Via Folperti,77,PV,Pavia,2002-06-06,NA,45.19467609907785,9.164638300630086,UB,A
9920,665,NOx,Viadana - Via Cavalli,37,MN,Viadana,2004-06-15,NA,44.92469404955067,10.517502067117825,UB,B
5737,578,Ozone,Varenna - Via Polvani,220,LC,Varenna,1991-02-17,2008-02-07,46.00942283474235,9.285304059583972,NA,NA
12579,1303,NO2,Cremona - Via Gerre Borghi,36,CR,Cremona,2012-01-01,2017-01-01,45.10953938027215,10.069230734956498,NA,NA
6388,555,NOx,Busto Arsizio - Via Magenta,222,VA,Busto Arsizio,1991-05-25,2018-07-30,45.610736040012604,8.850115752092071,NA,NA
5686,575,Sulfur_dioxide,Nibionno - Via Della Chiesa,310,LC,Nibionno,1991-02-17,2003-06-10,45.751111261617815,9.265020964805544,NA,NA
6734,645,NOx,Voghera - Via Repubblica,100,PV,Voghera,2003-06-01,2012-10-15,44.98586313155348,9.007128842722402,NA,NA
5510,507,NO2,Villasanta - Via Volta,176,MB,Villasanta,1990-02-13,2010-06-20,45.608621349658364,9.307118451572562,NA,NA
10278,705,NOx,Milano Pascal Città Studi,122,MI,Milano,2007-06-16,NA,45.47899606168744,9.235491038497502,UB,Agg_MI
20491,1800,NO2,Brescia San Polo,124,BS,Brescia,NA,NA,45.5086667998462,10.256370247433845,UB,Agg_BS
6246,573,NOx,Colico - Via La Madoneta,229,LC,Colico,1996-11-06,NA,46.1381409051264,9.384687247651794,SB,C
6702,643,Sulfur_dioxide,Pavia - Piazza Minerva,77,PV,Pavia,2002-03-03,2003-08-11,45.18632908049483,9.146666041286784,UT,A
5665,595,Sulfur_dioxide,Filago - Via Don Milani,190,BG,Filago,1991-12-07,NA,45.63386450908066,9.556084255790864,UB,Agg_BG
6690,642,NOx,Pavia - Via Folperti,77,PV,Pavia,2002-06-01,NA,45.19467609907785,9.164638300630086,UB,A
5621,532,Sulfur_dioxide,Cuggiono - Via Languria,156,MI,Cuggiono,1989-12-18,2009-12-11,45.5014842949991,8.804453762398397,NA,NA
6276,606,NOx,San Giuliano Milanese - Via Milano,97,MI,San Giuliano Milanese,2000-01-13,NA,45.39619462552717,9.282700075557845,UT,A
9985,600,PM2.5,Lodi - Via Vignati,80,LO,Lodi,2006-07-10,NA,45.30601298752377,9.48526286320174,UT,A
5647,528,Sulfur_dioxide,Milano Verziere,116,MI,Milano,1988-12-07,2004-03-01,45.463346740666545,9.195324807668857,UT,Agg_MI
5580,577,NO2,Calolziocorte - Corso Dante,215,LC,Calolziocorte,1994-11-28,2018-07-30,45.80209550514092,9.429467320277878,NA,NA
5690,603,Sulfur_dioxide,Castiraga Vidardo - Via Craxi,74,LO,Castiraga Vidardo,2000-01-13,2008-04-11,45.26232519992153,9.400281323067924,NA,NA
9897,609,NO2,Casirate D'Adda - Via Cimitero,108,BG,Casirate D'Adda,2005-11-10,NA,45.49822713394494,9.556232262351761,RB,A
5643,538,Sulfur_dioxide,Settimo Milanese - Via Della Libertà,132,MI,Settimo Milanese,1992-05-19,2003-08-26,45.480268785554635,9.056862031759728,NA,NA
17293,1264,PM10,Sondrio - Via Paribelli,290,SO,Sondrio,2012-10-09,NA,46.167852440665115,9.879209924469903,UB,D
6777,651,CO,Brescia - Via Triumplina,175,BS,Brescia,1999-01-15,2005-10-19,45.57158552261201,10.23148691302886,NA,NA
5747,559,Ozone,Somma Lombardo - Via Facchinetti,210,VA,Somma Lombardo,2000-03-21,2018-01-01,45.649537127292405,8.71269145828479,NA,NA
6799,654,Sulfur_dioxide,Sarezzo - Via Minelli,269,BS,Sarezzo,1990-02-18,2007-01-30,45.64962671224069,10.205090218837002,UB,Agg_BS
6919,561,PM10,Como - Via Cattaneo,202,CO,Como,2000-01-04,NA,45.81504286011291,9.06697137484454,UT,Agg_MI
6911,543,PM10,Vimercate - Via Dell'Ospedale,194,MB,Vimercate,1998-02-06,2018-07-30,45.614920870442226,9.368396161785157,NA,NA
6918,560,PM10,Varese - Via Copelli,383,VA,Varese,2003-07-17,NA,45.816973233263674,8.820240707158211,UT,A
20104,592,PM2.5,Treviglio - Piazza Insurrezione,191,BG,Treviglio,2015-03-01,NA,45.51933498138716,9.592009994888425,UT,Agg_BG
10477,1267,CO,Turano Lodigiano - Via Gramsci,65,LO,Turano Lodigiano,2009-08-03,2017-03-31,45.25028308918456,9.62125819274314,NA,NA
5612,530,Sulfur_dioxide,Agrate Brianza - Via Ferrario,162,MB,Agrate Brianza,1990-02-14,2006-05-05,45.57578475922807,9.354105650819204,NA,NA
6864,661,NOx,Rezzato - Via De Gasperi,147,BS,Rezzato,1992-08-05,NA,45.51570829484459,10.336240422996532,SI,Agg_BS
20492,1800,PM2.5,Brescia San Polo,124,BS,Brescia,NA,NA,45.5086667998462,10.256370247433845,UB,Agg_BS
9739,608,PM10,Codogno - Via Trento,59,LO,Codogno,2005-04-09,NA,45.15937280234111,9.69814824935254,UT,B
6062,503,Benzene,Milano - Piazza Zavattari,122,MI,Milano,2000-01-17,2018-07-30,45.47606340509791,9.141786267186658,NA,NA
5623,610,Sulfur_dioxide,Cassano D'Adda - Viale Delle Rimembranze,141,MI,Cassano D'Adda,1980-09-18,2005-10-27,45.54735712557429,9.482556888751144,NA,NA
6705,643,CO,Pavia - Piazza Minerva,77,PV,Pavia,2002-03-03,NA,45.18632908049483,9.146666041286784,UT,A
6879,664,CO,Mantova - Piazza Gramsci,18,MN,Mantova,2004-06-11,NA,45.151743379576594,10.78140770009565,UT,A
20216,690,Sulfur_dioxide,Mezzana Bigli - Località Casoni,73,PV,Mezzana Bigli,2006-01-20,NA,45.069658641385914,8.86888929943922,RI,B
10335,709,PM10,Vigevano - Via Valletta,109,PV,Vigevano,2007-08-08,NA,45.303607869655714,8.844804609965438,UB,A
12597,609,Cadmium,Casirate D'Adda - Via Cimitero,108,BG,Casirate D'Adda,2008-04-24,NA,45.49822713394494,9.556232262351761,RB,A
12640,548,Lead,Milano - Via Senato,118,MI,Milano,2008-07-09,NA,45.470499014097,9.197460360112531,UT,Agg_MI
12603,655,Cadmium,Darfo Boario Terme - Via De Amicis,221,BS,Darfo Boario Terme,2008-04-18,NA,45.87460210989037,10.17735680898138,SB,D
6636,510,PM_tot,Inzago - Viale Gramsci,138,MI,Inzago,1990-12-27,2010-02-19,45.539768856661,9.486885367436152,NA,NA
6736,645,PM_tot,Voghera - Via Repubblica,100,PV,Voghera,2002-03-07,2006-10-01,44.98586313155348,9.007128842722402,NA,NA
9984,669,PM2.5,Brescia Villaggio Sereno,70,BS,Brescia,2006-06-06,NA,45.513038818653754,10.19194188877931,UB,Agg_BS
5951,626,Sulfur_dioxide,Corte De Cortesi Con Cignone - Via Villa Strada Forca,57,CR,Corte De Cortesi Con Cignone,1992-11-01,2012-01-04,45.27848755478839,10.006202391204335,RI,B
6867,662,Sulfur_dioxide,Vobarno - Via Sottostrada,242,BS,Vobarno,1990-02-16,2012-01-04,45.63635959038354,10.512962803725342,NA,NA
5828,542,CO,Meda - Via Gagarin,222,MB,Meda,1995-11-01,NA,45.66176219189168,9.156643984551597,UT,Agg_MI
9882,674,Ozone,Monza - Via Machiavelli,162,MB,Monza,2005-10-21,NA,45.58026348442243,9.273573092713274,UB,Agg_MI
9928,677,NO2,Cremona - Via Fatebenefratelli,43,CR,Cremona,2006-04-11,NA,45.14254063221695,10.043836158369393,UB,A
6616,586,PM_tot,Costa Volpino - Via Nazionale,192,BG,Costa Volpino,1993-07-26,2012-11-23,45.82715793876258,10.09706172418631,NA,NA
6706,643,NOx,Pavia - Piazza Minerva,77,PV,Pavia,2002-03-03,NA,45.18632908049483,9.146666041286784,UT,A
9805,671,NO2,Mantova Tridolino,22,MN,Mantova,2004-12-31,2017-01-01,45.153319585785574,10.859263911962309,NA,NA
5659,589,Sulfur_dioxide,Nembro - Via Locatelli,309,BG,Nembro,1991-06-05,2003-05-31,45.743036830343144,9.760535572770022,NA,NA
10179,704,NO2,Sermide E Felonica - Via Dalla Chiesa,11,MN,Sermide E Felonica,2006-11-29,2017-01-01,45.004613731114105,11.294014707706845,NA,NA
20428,683,PM10,Cassano D'Adda - Via Milano,133,MI,Cassano D'Adda,2017-12-19,NA,45.52647254585104,9.515980483627096,UT,A
12641,548,Benzo_a_pyrene,Milano - Via Senato,118,MI,Milano,2008-07-10,NA,45.470499014097,9.197460360112531,UT,Agg_MI
5561,558,NO2,Busto Arsizio Accam,206,VA,Busto Arsizio,1998-12-06,NA,45.582894292717725,8.842165456706075,SB,Agg_MI
6945,633,PM10,Soresina - Via Landriani,70,CR,Soresina,2000-02-04,NA,45.28397715446764,9.863398419993635,ST,B
5853,560,CO,Varese - Via Copelli,383,VA,Varese,2003-08-07,NA,45.816973233263674,8.820240707158211,UT,A
10384,693,Benzene,Sannazzaro De Burgondi - Via Traversi,85,PV,Sannazzaro De Burgondi,2007-01-01,NA,45.10276627684137,8.90417452771467,UI,B
12638,548,Arsenic,Milano - Via Senato,118,MI,Milano,2008-07-09,NA,45.470499014097,9.197460360112531,UT,Agg_MI
6218,583,NOx,Bergamo - Via Meucci,249,BG,Bergamo,1989-06-01,NA,45.69103740547214,9.643650579461385,UB,Agg_BG
10433,1264,Sulfur_dioxide,Sondrio - Via Paribelli,290,SO,Sondrio,2009-01-04,2012-01-04,46.167852440665115,9.879209924469903,UB,D
20489,1800,NOx,Brescia San Polo,124,BS,Brescia,NA,NA,45.5086667998462,10.256370247433845,UB,Agg_BS
10167,703,NO2,Schivenoglia - Via Malpasso,NA,MN,Schivenoglia,2006-11-29,NA,45.016877820755425,11.07609463264049,RB,B
9972,679,Ozone,Valmadrera - Via Pozzi,247,LC,Valmadrera,2006-02-21,NA,45.842207261022544,9.351658166127958,SB,A
6423,630,NOx,Crema - Via Indipendenza,78,CR,Crema,2002-01-01,2007-04-03,45.369413822391465,9.677268708195667,NA,NA
20427,683,Sulfur_dioxide,Cassano D'Adda - Via Milano,133,MI,Cassano D'Adda,2017-12-20,NA,45.52647254585104,9.515980483627096,UT,A
10320,548,PM10,Milano - Via Senato,118,MI,Milano,2007-08-10,NA,45.470499014097,9.197460360112531,UT,Agg_MI
5721,545,Ozone,Motta Visconti - Via De Gasperi,100,MI,Motta Visconti,1998-03-17,NA,45.281956197427846,8.988562726793255,SB,B
6793,653,PM_tot,Brescia - Via Ziziola,125,BS,Brescia,2005-07-19,2013-11-17,45.51455919056731,10.218463502801265,NA,NA
6652,571,PM_tot,Bormio - Via Monte Braulio,1225,SO,Bormio,1993-11-01,2003-04-16,46.46952397132585,10.375432759159036,UB,C
5837,513,CO,Trezzo Sulladda - Via Nenni,199,MI,Trezzo Sulladda,2001-02-22,2017-01-01,45.61369175877737,9.50812248390592,NA,NA
10007,684,CO,Truccazzano - Via Fornasino,105,MI,Truccazzano,2006-02-17,2018-01-01,45.48455813667995,9.471348388974729,NA,NA
9965,609,PM10,Casirate D'Adda - Via Cimitero,108,BG,Casirate D'Adda,2006-01-01,NA,45.49822713394494,9.556232262351761,RB,A
5563,560,NO2,Varese - Via Copelli,383,VA,Varese,2003-08-07,NA,45.816973233263674,8.820240707158211,UT,A
5796,586,CO,Costa Volpino - Via Nazionale,192,BG,Costa Volpino,1993-07-26,2011-09-12,45.82715793876258,10.09706172418631,NA,NA
11041,674,Sulfur_dioxide,Monza - Via Machiavelli,162,MB,Monza,2011-02-10,NA,45.58026348442243,9.273573092713274,UB,Agg_MI
6944,632,PM10,Pizzighettone - Via Formigara,45,CR,Pizzighettone,2000-02-03,2014-01-02,45.18168712150796,9.793385935673802,NA,NA
20155,690,PM10,Mezzana Bigli - Località Casoni,73,PV,Mezzana Bigli,2013-11-20,NA,45.069658641385914,8.86888929943922,RI,B
17040,583,Nikel,Bergamo - Via Meucci,249,BG,Bergamo,2012-01-13,NA,45.69103740547214,9.643650579461385,UB,Agg_BG
20443,681,NO2,Moggio - Località Penscei,1194,LC,Moggio,2007-03-16,NA,45.91278752030292,9.497538167653424,RB,C
5578,575,NO2,Nibionno - Via Della Chiesa,310,LC,Nibionno,1991-12-20,2018-07-30,45.751111261617815,9.265020964805544,NA,NA
5846,570,CO,Tirano Viale Italia,439,SO,Tirano,1996-05-30,2018-07-30,46.21774621439411,10.156470232146322,NA,NA
6404,625,CO,Casalmaggiore - Via Volta,23,CR,Casalmaggiore,1996-05-19,2007-02-21,44.980660403835316,10.427376916159512,NA,NA
6901,668,Ozone,Mantova Lunetta,25,MN,Mantova,2003-01-01,2018-01-01,45.157985278189244,10.823931433968092,NA,NA
5713,502,Ozone,Milano - Via Juvara,122,MI,Milano,1981-01-12,2007-07-20,45.473225708577175,9.222315138737468,NA,NA
12613,670,Nikel,Mantova San Agnese,22,MN,Mantova,2008-02-19,NA,45.16056833010576,10.79556411370788,UB,A
6715,644,NO2,Vigevano - Via Petrarca,107,PV,Vigevano,2004-01-24,2012-02-02,45.326401500542325,8.860310253579987,NA,NA
5556,553,NO2,Saronno - Via Marconi,211,VA,Saronno,1993-06-23,2003-12-03,45.62396968592561,9.037226525673523,NA,NA
5801,562,CO,Mariano Comense - Viale Lombardia,256,CO,Mariano Comense,1991-12-18,2012-01-04,45.68865731381679,9.180657768638271,NA,NA
5717,531,Ozone,Pioltello Limito,114,MI,Pioltello,1989-05-13,NA,45.48363035323249,9.327360033215145,UB,Agg_MI
20031,693,Ammonia,Sannazzaro De Burgondi - Via Traversi,85,PV,Sannazzaro De Burgondi,2013-10-24,NA,45.10276627684137,8.90417452771467,UI,B
5567,564,NO2,Erba - Via Battisti,279,CO,Erba,2009-06-13,NA,45.808573806922965,9.221779204488435,UB,A
5626,537,Sulfur_dioxide,Lainate - Via Mengato,176,MI,Lainate,1991-09-25,2000-10-18,45.56753666798259,9.025796665025974,NA,NA
30166,652,Benzene,Brescia - Via Turati,154,BS,Brescia,2016-01-01,NA,45.539529434955995,10.231785907477223,UT,Agg_BS
20154,690,Ozone,Mezzana Bigli - Località Casoni,73,PV,Mezzana Bigli,2013-11-20,NA,45.069658641385914,8.86888929943922,RI,B
5597,594,NO2,Bergamo - Via Goisis,290,BG,Bergamo,1996-09-14,2018-07-30,45.715912469852206,9.688958745309764,NA,NA
10505,1269,NOx,Dalmine - Via Verdi,207,BG,Dalmine,2010-02-12,NA,45.64970251236247,9.601223338785262,UB,Agg_BG
6216,597,NOx,Lallio - Via Sforzatica,212,BG,Lallio,2000-04-13,2017-01-01,45.65966391792855,9.618568761257565,NA,NA
6408,626,NOx,Corte De Cortesi Con Cignone - Via Villa Strada Forca,57,CR,Corte De Cortesi Con Cignone,2002-01-01,NA,45.27848755478839,10.006202391204335,RI,B
17038,583,Arsenic,Bergamo - Via Meucci,249,BG,Bergamo,2012-01-13,NA,45.69103740547214,9.643650579461385,UB,Agg_BG
10474,1267,Benzene,Turano Lodigiano - Via Gramsci,65,LO,Turano Lodigiano,2010-01-01,2017-03-31,45.25028308918456,9.62125819274314,NA,NA
5750,552,Ozone,Varese - Via Vidoletti,425,VA,Varese,1991-12-23,NA,45.83690077655548,8.80392612667495,UB,A
6324,531,NOx,Pioltello Limito,114,MI,Pioltello,1989-05-12,NA,45.48363035323249,9.327360033215145,UB,Agg_MI
12620,542,Arsenic,Meda - Via Gagarin,222,MB,Meda,2008-04-18,NA,45.66176219189168,9.156643984551597,UT,Agg_MI
5620,525,Sulfur_dioxide,Corsico - Viale Italia,119,MI,Corsico,1983-06-06,2006-11-04,45.43610851009912,9.097410841871474,NA,NA
5850,557,CO,Lonate Pozzolo - Via Veneto,204,VA,Lonate Pozzolo,1996-12-05,2012-01-04,45.59402351710858,8.7407965765392,NA,NA
10049,689,Sulfur_dioxide,Galliavola - Via Marconi,87,PV,Galliavola,2007-01-01,2017-01-01,45.095121633481334,8.820308319996208,NA,NA
5550,547,NO2,Milano Parco Lambro,123,MI,Milano,1995-04-21,2018-07-30,45.499583690483405,9.247326889507654,NA,NA
10349,527,PM2.5,Castano Primo - Via Olimpiadi,175,MI,Castano Primo,2007-03-03,2017-01-01,45.54594268367404,8.776104584370271,NA,NA
6208,595,NOx,Filago - Via Don Milani,190,BG,Filago,1992-03-06,NA,45.63386450908066,9.556084255790864,UB,Agg_BG
5569,566,NO2,Olgiate Comasco - Via Roma,404,CO,Olgiate Comasco,1995-02-01,2010-04-15,45.78389725453634,8.966397886811311,NA,NA
6779,651,NOx,Brescia - Via Triumplina,175,BS,Brescia,1999-01-16,2005-10-18,45.57158552261201,10.23148691302886,NA,NA
10038,687,NO2,Ferno - Via Di Dio,215,VA,Ferno,2006-11-06,NA,45.61924377994763,8.756970445453431,UB,A
6877,664,NO2,Mantova - Piazza Gramsci,18,MN,Mantova,2004-06-08,NA,45.151743379576594,10.78140770009565,UT,A
6362,519,NOx,Tribiano,94,MI,Tribiano,1993-09-17,2006-04-13,45.40554635277101,9.370994067584798,NA,NA
5964,632,Sulfur_dioxide,Pizzighettone - Via Formigara,45,CR,Pizzighettone,1996-05-17,2012-01-04,45.18168712150796,9.793385935673802,NA,NA
6202,591,NOx,Seriate - Via Garibaldi,256,BG,Seriate,1991-10-31,2018-07-30,45.68635606439914,9.714947917631529,NA,NA
5617,508,Sulfur_dioxide,Cassano D'Adda - Via Di Vona,133,MI,Cassano D'Adda,1976-10-14,2017-12-11,45.52000867032165,9.512220968943545,NA,NA
5658,552,Sulfur_dioxide,Varese - Via Vidoletti,425,VA,Varese,1991-12-23,NA,45.83690077655548,8.80392612667495,UB,A
5661,591,Sulfur_dioxide,Seriate - Via Garibaldi,256,BG,Seriate,1991-10-31,2003-06-03,45.68635606439914,9.714947917631529,NA,NA
30159,655,NOx,Darfo Boario Terme - Via De Amicis,221,BS,Darfo Boario Terme,2013-01-23,NA,45.87460210989037,10.17735680898138,SB,D
6645,515,PM_tot,Pero SS Sempione,141,MI,Pero,1991-05-08,2005-10-13,45.509852266792514,9.089972020337333,NA,NA
10491,681,PM10,Moggio - Località Penscei,1194,LC,Moggio,2009-03-31,NA,45.91278752030292,9.497538167653424,RB,C
9969,679,NO2,Valmadrera - Via Pozzi,247,LC,Valmadrera,2006-02-15,NA,45.842207261022544,9.351658166127958,SB,A
6859,661,NO2,Rezzato - Via De Gasperi,147,BS,Rezzato,1992-08-05,NA,45.51570829484459,10.336240422996532,SI,Agg_BS
5573,570,NO2,Tirano Viale Italia,439,SO,Tirano,1993-11-01,2018-07-30,46.21774621439411,10.156470232146322,NA,NA
5962,630,Sulfur_dioxide,Crema - Via Indipendenza,78,CR,Crema,1992-11-01,2003-10-02,45.369413822391465,9.677268708195667,NA,NA
5848,555,CO,Busto Arsizio - Via Magenta,222,VA,Busto Arsizio,1991-05-25,2012-01-03,45.610736040012604,8.850115752092071,NA,NA
5695,601,Sulfur_dioxide,Montanaso Lombardo SP202 ,84,LO,Montanaso Lombardo,2000-01-13,2008-04-11,45.33613100905199,9.45255388178171,NA,NA
6898,668,NO2,Mantova Lunetta,25,MN,Mantova,2003-01-01,2018-07-30,45.157985278189244,10.823931433968092,NA,NA
12665,681,Benzo_a_pyrene,Moggio - Località Penscei,1194,LC,Moggio,2008-06-15,NA,45.91278752030292,9.497538167653424,RB,C
6386,558,NOx,Busto Arsizio Accam,206,VA,Busto Arsizio,1998-12-06,NA,45.582894292717725,8.842165456706075,SB,Agg_MI
6731,645,Sulfur_dioxide,Voghera - Via Repubblica,100,PV,Voghera,2002-03-07,2003-08-08,44.98586313155348,9.007128842722402,NA,NA
6917,558,PM10,Busto Arsizio Accam,206,VA,Busto Arsizio,1999-01-20,NA,45.582894292717725,8.842165456706075,SB,Agg_MI
5718,546,Ozone,Magenta - Via Turati,137,MI,Magenta,1995-07-29,NA,45.462415791106615,8.880210433125571,UT,A
6206,593,NOx,Ciserano - Corso Europa,159,BG,Ciserano,1994-11-30,2018-07-30,45.591548429500484,9.606127731575759,NA,NA
5790,592,CO,Treviglio - Piazza Insurrezione,191,BG,Treviglio,1994-12-01,NA,45.51933498138716,9.592009994888425,UT,Agg_BG
9798,670,CO,Mantova San Agnese,22,MN,Mantova,2004-12-28,NA,45.16056833010576,10.79556411370788,UB,A
6609,593,PM_tot,Ciserano - Corso Europa,159,BG,Ciserano,1991-06-10,2002-03-24,45.591548429500484,9.606127731575759,NA,NA
5836,538,CO,Settimo Milanese - Via Della Libertà,132,MI,Settimo Milanese,1992-07-28,2011-07-14,45.480268785554635,9.056862031759728,NA,NA
6966,669,Sulfur_dioxide,Brescia Villaggio Sereno,70,BS,Brescia,2004-11-24,NA,45.513038818653754,10.19194188877931,UB,Agg_BS
5731,566,Ozone,Olgiate Comasco - Via Roma,404,CO,Olgiate Comasco,1996-08-01,2010-04-15,45.78389725453634,8.966397886811311,NA,NA
6204,592,NOx,Treviglio - Piazza Insurrezione,191,BG,Treviglio,1991-06-02,NA,45.51933498138716,9.592009994888425,UT,Agg_BG
10103,697,PM10,Borgofranco Sul Po - Località Bonizzo,14,MN,Borgofranco Sul Po,2007-01-01,NA,45.04650153816735,11.18093581912755,SB,B
10165,703,NOx,Schivenoglia - Via Malpasso,NA,MN,Schivenoglia,2006-11-29,NA,45.016877820755425,11.07609463264049,RB,B
5639,509,Sulfur_dioxide,Rivolta D'Adda - Via Beccaria,101,CR,Rivolta D'Adda,1984-12-14,2008-06-12,45.46855301694732,9.511345333837518,NA,NA
6622,573,PM_tot,Colico - Via La Madoneta,229,LC,Colico,1991-02-17,2002-10-03,46.1381409051264,9.384687247651794,SB,C
5952,626,Ozone,Corte De Cortesi Con Cignone - Via Villa Strada Forca,57,CR,Corte De Cortesi Con Cignone,1996-05-17,NA,45.27848755478839,10.006202391204335,RI,B
6278,613,NOx,Spino D'Adda SP1,80,CR,Spino D'Adda,2000-01-13,2006-04-13,45.389753164229845,9.489402571088535,NA,NA
5595,592,NO2,Treviglio - Piazza Insurrezione,191,BG,Treviglio,1991-06-02,NA,45.51933498138716,9.592009994888425,UT,Agg_BG
6220,584,NOx,Bergamo - Via Garibaldi,249,BG,Bergamo,1994-06-21,NA,45.69568034432694,9.66124914606551,UT,Agg_BG
6037,544,Benzene,Cormano - Via Edison,153,MI,Cormano,2001-02-19,2001-10-04,45.551041944372415,9.162613653151322,UB,Agg_MI
5675,565,Sulfur_dioxide,Cantù - Via Meucci,369,CO,Cantù,1993-10-01,1997-08-05,45.73083672267427,9.125734327022926,SB,Agg_MI
5591,588,NO2,Tavernola Bergamasca - Via Riva Di Sotto,191,BG,Tavernola Bergamasca,1990-09-21,NA,45.71629992411727,10.044765999368437,SI,C
10327,708,Sulfur_dioxide,Parona - Via Della Miseria,112,PV,Parona,2007-08-15,NA,45.281935610357905,8.754334594539825,UI,B
6422,630,CO,Crema - Via Indipendenza,78,CR,Crema,1999-11-03,2007-04-03,45.369413822391465,9.677268708195667,NA,NA
12016,1297,NOx,Spinadesco - Via Battisti,48,CR,Spinadesco,2011-02-08,NA,45.150468869856816,9.930596472272326,SI,A
5512,509,NO2,Rivolta D'Adda - Via Beccaria,101,CR,Rivolta D'Adda,1991-01-01,2018-01-01,45.46855301694732,9.511345333837518,NA,NA
6633,530,PM_tot,Agrate Brianza - Via Ferrario,162,MB,Agrate Brianza,1990-02-21,2007-01-03,45.57578475922807,9.354105650819204,NA,NA
10437,1264,Ozone,Sondrio - Via Paribelli,290,SO,Sondrio,2009-01-04,NA,46.167852440665115,9.879209924469903,UB,D
5653,555,Sulfur_dioxide,Busto Arsizio - Via Magenta,222,VA,Busto Arsizio,1991-05-25,2012-01-03,45.610736040012604,8.850115752092071,NA,NA
10458,1266,NO2,Bertonico - Via Moro,65,LO,Bertonico,2009-08-03,NA,45.23349364130374,9.666250375296032,RB,B
12577,627,PM2.5,Cremona - Piazza Cadorna,39,CR,Cremona,2012-01-01,NA,45.13194691285173,10.015741513336042,UT,A
6607,591,PM_tot,Seriate - Via Garibaldi,256,BG,Seriate,2000-09-07,2002-04-04,45.68635606439914,9.714947917631529,NA,NA
5727,543,Ozone,Vimercate - Via Dell'Ospedale,194,MB,Vimercate,1995-01-11,2018-01-01,45.614920870442226,9.368396161785157,NA,NA
9921,667,NOx,Marmirolo Bosco Fontana,22,MN,Marmirolo,2004-06-05,2018-07-30,45.20817903938493,10.74263625117323,NA,NA
6958,569,PM10,Sondrio - Via Mazzini,307,SO,Sondrio,1999-12-08,NA,46.16796681227828,9.87014407497457,UT,D
5845,569,CO,Sondrio - Via Mazzini,307,SO,Sondrio,1993-11-01,NA,46.16796681227828,9.87014407497457,UT,D
6304,532,NOx,Cuggiono - Via Languria,156,MI,Cuggiono,1990-01-01,2017-01-01,45.5014842949991,8.804453762398397,NA,NA
20032,693,NOx,Sannazzaro De Burgondi - Via Traversi,85,PV,Sannazzaro De Burgondi,2013-10-24,NA,45.10276627684137,8.90417452771467,UI,B
5609,606,NO2,San Giuliano Milanese - Via Milano,97,MI,San Giuliano Milanese,2000-01-13,NA,45.39619462552717,9.282700075557845,UT,A
5694,602,Sulfur_dioxide,Melegnano - Via Predabissi,83,MI,Melegnano,2000-01-13,2007-11-08,45.35428575070997,9.329243424113708,NA,NA
12601,655,Nikel,Darfo Boario Terme - Via De Amicis,221,BS,Darfo Boario Terme,2008-04-18,NA,45.87460210989037,10.17735680898138,SB,D
10029,685,PM_tot,Calusco D'Adda - Via Caduti Sul Lavoro,273,BG,Calusco D'Adda,2006-05-05,2017-01-01,45.69042907854514,9.484260927647789,SB,A
5514,511,NO2,Abbiategrasso - Via Serafino Dell'Uomo,118,MI,Abbiategrasso,1998-01-23,2018-07-30,45.395404490146184,8.913416566778292,NA,NA
6360,513,NOx,Trezzo Sulladda - Via Nenni,199,MI,Trezzo Sulladda,2001-02-22,2017-01-01,45.61369175877737,9.50812248390592,NA,NA
6083,559,Benzene,Somma Lombardo - Via Facchinetti,210,VA,Somma Lombardo,2000-03-21,2018-07-30,45.649537127292405,8.71269145828479,NA,NA
12596,609,Arsenic,Casirate D'Adda - Via Cimitero,108,BG,Casirate D'Adda,2008-04-24,NA,45.49822713394494,9.556232262351761,RB,A
10005,684,NO2,Truccazzano - Via Fornasino,105,MI,Truccazzano,2006-02-17,2018-01-01,45.48455813667995,9.471348388974729,NA,NA
5738,607,Ozone,Abbadia Cerreto - Via Fanfulla,64,LO,Abbadia Cerreto,2001-04-10,NA,45.309502269282255,9.585790416120414,RB,B
5832,514,CO,Rho - Via Buon Gesù,152,MI,Rho,1991-10-02,NA,45.523425662003476,9.044599871111005,UB,Agg_MI
5522,519,NO2,Tribiano,94,MI,Tribiano,1993-09-17,2006-04-13,45.40554635277101,9.370994067584798,NA,NA
5545,542,NO2,Meda - Via Gagarin,222,MB,Meda,1995-11-01,NA,45.66176219189168,9.156643984551597,UT,Agg_MI
10048,688,Sulfur_dioxide,Scaldasole - Via XI Febbraio,88,PV,Scaldasole,2007-01-01,2017-01-01,45.12439458258305,8.911754872280346,NA,NA
6786,653,NO2,Brescia - Via Ziziola,125,BS,Brescia,1997-10-15,2018-07-30,45.51455919056731,10.218463502801265,NA,NA
5816,512,CO,Carate Brianza - Via De Gasperi,250,MB,Carate Brianza,1994-10-25,2011-07-01,45.672024734078455,9.234591661788048,NA,NA
6640,531,PM_tot,Pioltello Limito,114,MI,Pioltello,1989-06-05,1998-02-20,45.48363035323249,9.327360033215145,UB,Agg_MI
9999,683,NO2,Cassano D'Adda - Via Milano,133,MI,Cassano D'Adda,2006-02-17,NA,45.52647254585104,9.515980483627096,UT,A
9899,609,Ozone,Casirate D'Adda - Via Cimitero,108,BG,Casirate D'Adda,2005-12-01,NA,45.49822713394494,9.556232262351761,RB,A
6929,576,PM10,Merate - Via Madonna Di Loreto,279,LC,Merate,2000-01-01,NA,45.69795198970243,9.406190938686596,UT,Agg_MI
10017,685,NOx,Calusco D'Adda - Via Caduti Sul Lavoro,273,BG,Calusco D'Adda,2006-06-30,NA,45.69042907854514,9.484260927647789,SB,A
6613,583,PM_tot,Bergamo - Via Meucci,249,BG,Bergamo,2004-06-22,2000-07-02,45.69103740547214,9.643650579461385,UB,Agg_BG
6853,660,Sulfur_dioxide,Ospitaletto - Via XXV Aprile,155,BS,Ospitaletto,1990-02-16,2003-09-16,45.55325139975436,10.084916143968398,NA,NA
17297,583,Ozone,Bergamo - Via Meucci,249,BG,Bergamo,2013-01-24,NA,45.69103740547214,9.643650579461385,UB,Agg_BG
20442,681,NO,Moggio - Località Penscei,1194,LC,Moggio,2007-03-16,NA,45.91278752030292,9.497538167653424,RB,C
5700,571,Sulfur_dioxide,Bormio - Via Monte Braulio,1225,SO,Bormio,1993-11-01,NA,46.46952397132585,10.375432759159036,UB,C
10580,627,Sulfur_dioxide,Cremona - Piazza Cadorna,39,CR,Cremona,2010-09-01,NA,45.13194691285173,10.015741513336042,UT,A
12674,1264,Arsenic,Sondrio - Via Paribelli,290,SO,Sondrio,2008-04-01,NA,46.167852440665115,9.879209924469903,UB,D
5506,503,NO2,Milano - Piazza Zavattari,122,MI,Milano,1980-09-18,2018-07-30,45.47606340509791,9.141786267186658,NA,NA
6228,588,NOx,Tavernola Bergamasca - Via Riva Di Sotto,191,BG,Tavernola Bergamasca,1990-09-21,NA,45.71629992411727,10.044765999368437,SI,C
5562,559,NO2,Somma Lombardo - Via Facchinetti,210,VA,Somma Lombardo,2000-03-21,2018-07-30,45.649537127292405,8.71269145828479,NA,NA
6390,556,NOx,Gallarate - Piazza San Lorenzo,240,VA,Gallarate,1991-06-26,2018-07-30,45.65745982503037,8.797570832831466,NA,NA
20157,642,PM2.5,Pavia - Via Folperti,77,PV,Pavia,2013-11-20,NA,45.19467609907785,9.164638300630086,UB,A
6733,645,CO,Voghera - Via Repubblica,100,PV,Voghera,2002-03-07,2012-01-04,44.98586313155348,9.007128842722402,NA,NA
5809,600,CO,Lodi - Via Vignati,80,LO,Lodi,1999-12-30,NA,45.30601298752377,9.48526286320174,UT,A
5768,562,PM10,Mariano Comense - Viale Lombardia,256,CO,Mariano Comense,1999-01-01,2003-08-27,45.68865731381679,9.180657768638271,NA,NA
6634,527,PM_tot,Castano Primo - Via Olimpiadi,175,MI,Castano Primo,1990-02-19,2007-02-27,45.54594268367404,8.776104584370271,NA,NA
5821,540,CO,Garbagnate Milanese - Via Villoresi,175,MI,Garbagnate Milanese,1992-11-30,2011-07-14,45.5717162655023,9.07824159056828,NA,NA
17042,677,Ammonia,Cremona - Via Fatebenefratelli,43,CR,Cremona,2011-02-15,NA,45.14254063221695,10.043836158369393,UB,A
6907,513,PM10,Trezzo Sulladda - Via Nenni,199,MI,Trezzo Sulladda,2001-04-03,2017-01-01,45.61369175877737,9.50812248390592,NA,NA
20441,681,NOx,Moggio - Località Penscei,1194,LC,Moggio,2007-03-17,NA,45.91278752030292,9.497538167653424,RB,C
6354,548,NOx,Milano - Via Senato,118,MI,Milano,1995-04-21,NA,45.470499014097,9.197460360112531,UT,Agg_MI
6617,587,PM_tot,Casnigo - Via Europa,514,BG,Casnigo,1989-11-08,2003-01-03,45.81463898053286,9.867700614310943,NA,NA
6686,642,Sulfur_dioxide,Pavia - Via Folperti,77,PV,Pavia,2002-06-01,NA,45.19467609907785,9.164638300630086,UB,A
5589,586,NO2,Costa Volpino - Via Nazionale,192,BG,Costa Volpino,1993-07-26,2018-07-30,45.82715793876258,10.09706172418631,NA,NA
6870,663,Benzene,Mantova - Via Ariosto,18,MN,Mantova,2003-01-01,NA,45.14526012578896,10.80332595007927,UI,A
6412,627,NOx,Cremona - Piazza Cadorna,39,CR,Cremona,2002-01-01,NA,45.13194691285173,10.015741513336042,UT,A
5533,530,NO2,Agrate Brianza - Via Ferrario,162,MB,Agrate Brianza,1990-02-13,2018-07-30,45.57578475922807,9.354105650819204,NA,NA
29041,561,Benzene,Como - Via Cattaneo,202,CO,Como,NA,NA,45.81504286011291,9.06697137484454,UT,Agg_MI
10450,655,PM2.5,Darfo Boario Terme - Via De Amicis,221,BS,Darfo Boario Terme,2008-12-23,NA,45.87460210989037,10.17735680898138,SB,D
12690,560,Nikel,Varese - Via Copelli,383,VA,Varese,2008-04-01,NA,45.816973233263674,8.820240707158211,UT,A
9854,672,CO,Cornale - Via Libertà,74,PV,Cornale,2005-07-29,NA,45.04007657202963,8.914144599002409,RB,B
9997,682,Ozone,Ferrera Erbognone Eni,88,PV,Ferrera Erbognone,2006-01-21,NA,45.11350314482957,8.874064848882607,RI,B
10173,703,PM10,Schivenoglia - Via Malpasso,NA,MN,Schivenoglia,2007-01-01,NA,45.016877820755425,11.07609463264049,RB,B
5638,514,Sulfur_dioxide,Rho - Via Buon Gesù,152,MI,Rho,1982-10-18,1999-05-04,45.523425662003476,9.044599871111005,UB,Agg_MI
6942,628,PM10,Cremona - Piazza Libertà,61,CR,Cremona,1996-06-05,2006-04-04,45.13737896273478,10.032359066275932,NA,NA
5670,584,Sulfur_dioxide,Bergamo - Via Garibaldi,249,BG,Bergamo,1994-06-16,NA,45.69568034432694,9.66124914606551,UT,Agg_BG
6234,564,NOx,Erba - Via Battisti,279,CO,Erba,2009-06-13,NA,45.808573806922965,9.221779204488435,UB,A
5799,564,CO,Erba - Via Battisti,279,CO,Erba,2009-01-01,2014-03-05,45.808573806922965,9.221779204488435,UB,A
5698,604,Sulfur_dioxide,Tavazzano Con Villavesco - Via Cascina Bagnolo,85,LO,Tavazzano Con Villavesco,2000-01-13,NA,45.33036100181227,9.414644726627262,SB,A
12585,1303,PM10,Cremona - Via Gerre Borghi,36,CR,Cremona,2012-01-01,2017-01-01,45.10953938027215,10.069230734956498,NA,NA
20487,695,CO,Ponti Sul Mincio - Via San Martino,113,MN,Ponti Sul Mincio,2021-06-01,NA,45.41277169168634,10.683357343786835,SB,B
10168,703,Sulfur_dioxide,Schivenoglia - Via Malpasso,NA,MN,Schivenoglia,2006-12-13,NA,45.016877820755425,11.07609463264049,RB,B
5654,556,Sulfur_dioxide,Gallarate - Piazza San Lorenzo,240,VA,Gallarate,1991-06-25,2001-03-26,45.65745982503037,8.797570832831466,NA,NA
5555,552,NO2,Varese - Via Vidoletti,425,VA,Varese,1991-12-24,NA,45.83690077655548,8.80392612667495,UB,A
5586,583,NO2,Bergamo - Via Meucci,249,BG,Bergamo,1989-06-01,NA,45.69103740547214,9.643650579461385,UB,Agg_BG
20034,693,NO2,Sannazzaro De Burgondi - Via Traversi,85,PV,Sannazzaro De Burgondi,2006-09-16,NA,45.10276627684137,8.90417452771467,UI,B
5520,517,NO2,Turbigo Vicolo Dello Sport,141,MI,Turbigo,1990-01-11,NA,45.52655086994247,8.736496578379215,UB,A
6426,631,NOx,Piadena - Via Cavour,30,CR,Piadena,2002-02-16,2018-07-30,45.12979322367744,10.379831668522419,NA,NA
5644,519,Sulfur_dioxide,Tribiano,94,MI,Tribiano,1982-03-08,2006-03-29,45.40554635277101,9.370994067584798,NA,NA
30162,669,NOx,Brescia Villaggio Sereno,70,BS,Brescia,2013-01-22,NA,45.513038818653754,10.19194188877931,UB,Agg_BS
5679,562,Sulfur_dioxide,Mariano Comense - Viale Lombardia,256,CO,Mariano Comense,1991-02-17,2002-06-05,45.68865731381679,9.180657768638271,NA,NA
10171,703,Ozone,Schivenoglia - Via Malpasso,NA,MN,Schivenoglia,2006-11-29,NA,45.016877820755425,11.07609463264049,RB,B
6370,543,NOx,Vimercate - Via Dell'Ospedale,194,MB,Vimercate,1994-12-23,2018-07-30,45.614920870442226,9.368396161785157,NA,NA
5516,513,NO2,Trezzo Sulladda - Via Nenni,199,MI,Trezzo Sulladda,2001-02-22,2017-01-01,45.61369175877737,9.50812248390592,NA,NA
6817,656,NOx,Gambara - Via Parma,47,BS,Gambara,1990-01-01,NA,45.24954362474624,10.299119496064078,SB,B
5519,516,NO2,Robecchetto Con Induno - Via Pertini,135,MI,Robecchetto Con Induno,1992-12-07,2017-01-01,45.51782219008838,8.766562109244964,NA,NA
10273,705,PM10,Milano Pascal Città Studi,122,MI,Milano,2007-04-21,NA,45.47899606168744,9.235491038497502,UB,Agg_MI
6320,539,NOx,Milano - Via Liguria,115,MI,Milano,1991-10-24,NA,45.443857653564926,9.167944501742676,UT,Agg_MI
5710,544,Ozone,Cormano - Via Edison,153,MI,Cormano,1994-11-03,NA,45.551041944372415,9.162613653151322,UB,Agg_MI
12670,703,Lead,Schivenoglia - Via Malpasso,NA,MN,Schivenoglia,2008-02-23,NA,45.016877820755425,11.07609463264049,RB,B
12695,1264,Lead,Sondrio - Via Paribelli,290,SO,Sondrio,2008-04-01,NA,46.167852440665115,9.879209924469903,UB,D
10185,704,PM10,Sermide E Felonica - Via Dalla Chiesa,11,MN,Sermide E Felonica,2007-01-01,2017-01-01,45.004613731114105,11.294014707706845,NA,NA
6366,528,NOx,Milano Verziere,116,MI,Milano,1988-11-24,NA,45.463346740666545,9.195324807668857,UT,Agg_MI
5706,530,Ozone,Agrate Brianza - Via Ferrario,162,MB,Agrate Brianza,1996-03-27,2018-01-01,45.57578475922807,9.354105650819204,NA,NA
6610,612,PM_tot,Filago - Via Fermi,176,BG,Filago,1992-01-01,NA,45.6244564811923,9.556504350318216,NA,NA
12608,546,Arsenic,Magenta - Via Turati,137,MI,Magenta,2008-04-15,NA,45.462415791106615,8.880210433125571,UT,A
9993,682,NO2,Ferrera Erbognone Eni,88,PV,Ferrera Erbognone,2006-01-21,NA,45.11350314482957,8.874064848882607,RI,B
6883,665,CO,Viadana - Via Cavalli,37,MN,Viadana,2003-10-26,2011-12-29,44.92469404955067,10.517502067117825,UB,B
9916,668,NOx,Mantova Lunetta,25,MN,Mantova,2004-08-04,2018-07-30,45.157985278189244,10.823931433968092,NA,NA
10479,1267,PM2.5,Turano Lodigiano - Via Gramsci,65,LO,Turano Lodigiano,2009-08-03,2017-03-31,45.25028308918456,9.62125819274314,NA,NA
9900,508,Ozone,Cassano D'Adda - Via Di Vona,133,MI,Cassano D'Adda,2005-12-01,2018-01-01,45.52000867032165,9.512220968943545,NA,NA
9917,663,NOx,Mantova - Via Ariosto,18,MN,Mantova,2004-06-05,NA,45.14526012578896,10.80332595007927,UI,A
6936,596,PM10,Osio Sotto - Via Per Levate,182,BG,Osio Sotto,2000-05-24,NA,45.62055567939559,9.611737821812373,SB,Agg_BG
20495,1801,NO2,Brescia - Via Tartaglia,151,BS,Brescia,NA,NA,45.542647891822845,10.211205215118259,UT,Agg_BS
6057,548,Benzene,Milano - Via Senato,118,MI,Milano,1999-01-01,NA,45.470499014097,9.197460360112531,UT,Agg_MI
20493,1801,NOx,Brescia - Via Tartaglia,151,BS,Brescia,NA,NA,45.542647891822845,10.211205215118259,UT,Agg_BS
6300,544,NOx,Cormano - Via Edison,153,MI,Cormano,1994-10-24,NA,45.551041944372415,9.162613653151322,UB,Agg_MI
6782,652,CO,Brescia - Via Turati,154,BS,Brescia,1999-01-12,NA,45.539529434955995,10.231785907477223,UT,Agg_BS
6955,663,PM10,Mantova - Via Ariosto,18,MN,Mantova,2003-01-01,NA,45.14526012578896,10.80332595007927,UI,A
6604,589,PM_tot,Nembro - Via Locatelli,309,BG,Nembro,1991-06-05,2005-06-13,45.743036830343144,9.760535572770022,NA,NA
6656,556,PM_tot,Gallarate - Piazza San Lorenzo,240,VA,Gallarate,1991-07-16,1999-12-16,45.65745982503037,8.797570832831466,NA,NA
6639,539,PM_tot,Milano - Via Liguria,115,MI,Milano,1995-05-16,2013-05-30,45.443857653564926,9.167944501742676,UT,Agg_MI
6346,514,NOx,Rho - Via Buon Gesù,152,MI,Rho,1991-10-03,NA,45.523425662003476,9.044599871111005,UB,Agg_MI
5593,590,NO2,Ponte San Pietro - Via Moiolo,225,BG,Ponte San Pietro,1990-07-04,2013-05-26,45.696081938463465,9.587784018279269,NA,NA
10037,687,NOx,Ferno - Via Di Dio,215,VA,Ferno,2006-11-06,NA,45.61924377994763,8.756970445453431,UB,A
5812,606,CO,San Giuliano Milanese - Via Milano,97,MI,San Giuliano Milanese,2000-01-13,NA,45.39619462552717,9.282700075557845,UT,A
9800,671,CO,Mantova Tridolino,22,MN,Mantova,2005-01-20,2017-01-01,45.153319585785574,10.859263911962309,NA,NA
6838,658,Sulfur_dioxide,Manerbio - Via Solferino,66,BS,Manerbio,1992-08-27,2003-09-15,45.34995949312804,10.144752235947312,NA,NA
9930,677,NOx,Cremona - Via Fatebenefratelli,43,CR,Cremona,2006-04-11,NA,45.14254063221695,10.043836158369393,UB,A
5619,544,Sulfur_dioxide,Cormano - Via Edison,153,MI,Cormano,1994-10-26,NA,45.551041944372415,9.162613653151322,UB,Agg_MI
10390,556,PM10,Gallarate - Piazza San Lorenzo,240,VA,Gallarate,2003-01-01,2018-07-30,45.65745982503037,8.797570832831466,NA,NA
10041,687,Ozone,Ferno - Via Di Dio,215,VA,Ferno,2006-11-06,NA,45.61924377994763,8.756970445453431,UB,A
5685,576,Sulfur_dioxide,Merate - Via Madonna Di Loreto,279,LC,Merate,1991-02-17,2003-07-30,45.69795198970243,9.406190938686596,UT,Agg_MI
5724,513,Ozone,Trezzo Sulladda - Via Nenni,199,MI,Trezzo Sulladda,2001-02-22,2017-01-01,45.61369175877737,9.50812248390592,NA,NA
20490,1800,NO,Brescia San Polo,124,BS,Brescia,NA,NA,45.5086667998462,10.256370247433845,UB,Agg_BS
6886,666,Sulfur_dioxide,Porto Mantovano - Via Gianni Rodari,29,MN,Porto Mantovano,2003-09-26,2012-01-04,45.19554009017032,10.79726229869026,NA,NA
6884,665,Ozone,Viadana - Via Cavalli,37,MN,Viadana,2003-10-01,NA,44.92469404955067,10.517502067117825,UB,B
6606,591,PM_tot,Seriate - Via Garibaldi,256,BG,Seriate,1991-11-20,2000-01-27,45.68635606439914,9.714947917631529,NA,NA
6637,502,PM_tot,Milano - Via Juvara,122,MI,Milano,1976-10-26,1998-02-12,45.473225708577175,9.222315138737468,NA,NA
5666,594,Sulfur_dioxide,Bergamo - Via Goisis,290,BG,Bergamo,1996-09-13,2003-06-03,45.715912469852206,9.688958745309764,NA,NA
5560,557,NO2,Lonate Pozzolo - Via Veneto,204,VA,Lonate Pozzolo,1996-12-05,2018-07-30,45.59402351710858,8.7407965765392,NA,NA
5805,574,CO,Lecco - Via Amendola,214,LC,Lecco,1991-02-17,NA,45.850191194578535,9.395577066893223,UT,A
9967,509,PM10,Rivolta D'Adda - Via Beccaria,101,CR,Rivolta D'Adda,2006-01-10,2018-01-01,45.46855301694732,9.511345333837518,NA,NA
10336,709,PM_tot,Vigevano - Via Valletta,109,PV,Vigevano,2007-08-07,NA,45.303607869655714,8.844804609965438,UB,A
6419,629,NOx,Crema - Via XI Febbraio,79,CR,Crema,2002-01-01,NA,45.366309078194334,9.703945513613167,SB,B
20020,705,Ammonia,Milano Pascal Città Studi,122,MI,Milano,2007-03-30,NA,45.47899606168744,9.235491038497502,UB,Agg_MI
5745,556,Ozone,Gallarate - Piazza San Lorenzo,240,VA,Gallarate,1991-08-30,2018-01-01,45.65745982503037,8.797570832831466,NA,NA
12591,669,Lead,Brescia Villaggio Sereno,70,BS,Brescia,2008-04-01,NA,45.513038818653754,10.19194188877931,UB,Agg_BS
10331,709,NO2,Vigevano - Via Valletta,109,PV,Vigevano,2007-08-08,NA,45.303607869655714,8.844804609965438,UB,A
6308,540,NOx,Garbagnate Milanese - Via Villoresi,175,MI,Garbagnate Milanese,1992-12-11,2018-07-30,45.5717162655023,9.07824159056828,NA,NA
10411,1263,CO,Villa Di Serio - Via Glera,280,BG,Villa Di Serio,2008-10-07,2011-09-12,45.73589144532835,9.738394788043442,NA,NA
5592,589,NO2,Nembro - Via Locatelli,309,BG,Nembro,1991-06-07,2007-03-14,45.743036830343144,9.760535572770022,NA,NA
6962,595,PM10,Filago - Via Don Milani,190,BG,Filago,2004-10-14,NA,45.63386450908066,9.556084255790864,UB,Agg_BG
6312,502,NOx,Milano - Via Juvara,122,MI,Milano,1977-05-06,2007-06-11,45.473225708577175,9.222315138737468,NA,NA
6922,566,PM10,Olgiate Comasco - Via Roma,404,CO,Olgiate Comasco,1995-02-01,2010-04-15,45.78389725453634,8.966397886811311,NA,NA
5733,574,Ozone,Lecco - Via Amendola,214,LC,Lecco,1991-02-17,2007-03-28,45.850191194578535,9.395577066893223,UT,A
5989,584,Benzene,Bergamo - Via Garibaldi,249,BG,Bergamo,1997-08-02,NA,45.69568034432694,9.66124914606551,UT,Agg_BG
6691,642,Ozone,Pavia - Via Folperti,77,PV,Pavia,2002-06-01,NA,45.19467609907785,9.164638300630086,UB,A
5565,562,NO2,Mariano Comense - Viale Lombardia,256,CO,Mariano Comense,1991-02-17,2015-03-01,45.68865731381679,9.180657768638271,NA,NA
5668,597,Sulfur_dioxide,Lallio - Via Sforzatica,212,BG,Lallio,2000-04-13,2017-01-01,45.65966391792855,9.618568761257565,NA,NA
12607,546,Nikel,Magenta - Via Turati,137,MI,Magenta,2008-04-15,NA,45.462415791106615,8.880210433125571,UT,A
5814,551,CO,Arconate - Via De Gasperi,182,MI,Arconate,1999-01-20,NA,45.54851735741946,8.847321929216262,SB,A
5676,561,Sulfur_dioxide,Como - Via Cattaneo,202,CO,Como,1991-02-17,NA,45.81504286011291,9.06697137484454,UT,Agg_MI
12622,542,Lead,Meda - Via Gagarin,222,MB,Meda,2008-04-18,NA,45.66176219189168,9.156643984551597,UT,Agg_MI
5663,593,Sulfur_dioxide,Ciserano - Corso Europa,159,BG,Ciserano,1991-06-13,2003-06-03,45.591548429500484,9.606127731575759,NA,NA
6608,592,PM_tot,Treviglio - Piazza Insurrezione,191,BG,Treviglio,1991-06-05,2000-01-28,45.51933498138716,9.592009994888425,UT,Agg_BG
6428,633,NOx,Soresina - Via Landriani,70,CR,Soresina,2002-01-01,NA,45.28397715446764,9.863398419993635,ST,B
6818,656,Ozone,Gambara - Via Parma,47,BS,Gambara,1990-02-15,NA,45.24954362474624,10.299119496064078,SB,B
20156,642,Ammonia,Pavia - Via Folperti,77,PV,Pavia,2013-11-20,NA,45.19467609907785,9.164638300630086,UB,A
5725,528,Ozone,Milano Verziere,116,MI,Milano,1988-09-20,NA,45.463346740666545,9.195324807668857,UT,Agg_MI
6260,607,NOx,Abbadia Cerreto - Via Fanfulla,64,LO,Abbadia Cerreto,2000-01-13,NA,45.309502269282255,9.585790416120414,RB,B
5613,536,Sulfur_dioxide,Arese - Via Matteotti,157,MI,Arese,1991-05-29,2003-10-22,45.543433254501636,9.080725831284644,NA,NA
6582,561,Ozone,Como - Via Cattaneo,202,CO,Como,1991-02-17,NA,45.81504286011291,9.06697137484454,UT,Agg_MI
6005,627,Benzene,Cremona - Piazza Cadorna,39,CR,Cremona,2002-05-16,NA,45.13194691285173,10.015741513336042,UT,A
6775,651,NO2,Brescia - Via Triumplina,175,BS,Brescia,1999-01-15,2005-10-19,45.57158552261201,10.23148691302886,NA,NA
6787,653,Sulfur_dioxide,Brescia - Via Ziziola,125,BS,Brescia,1997-10-15,2012-01-04,45.51455919056731,10.218463502801265,NA,NA
5834,548,CO,Milano - Via Senato,118,MI,Milano,1995-05-01,NA,45.470499014097,9.197460360112531,UT,Agg_MI
5599,596,NO2,Osio Sotto - Via Per Levate,182,BG,Osio Sotto,2000-04-06,NA,45.62055567939559,9.611737821812373,SB,Agg_BG
6856,660,NOx,Ospitaletto - Via XXV Aprile,155,BS,Ospitaletto,1990-01-01,2018-07-30,45.55325139975436,10.084916143968398,NA,NA
5629,541,Sulfur_dioxide,Limbiate - Via Turati,181,MB,Limbiate,1994-11-24,1999-10-12,45.597443498230305,9.125948942472387,NA,NA
12615,670,Cadmium,Mantova San Agnese,22,MN,Mantova,2008-02-19,NA,45.16056833010576,10.79556411370788,UB,A
5680,566,Sulfur_dioxide,Olgiate Comasco - Via Roma,404,CO,Olgiate Comasco,1995-02-01,2009-02-05,45.78389725453634,8.966397886811311,NA,NA
6720,644,NOx,Vigevano - Via Petrarca,107,PV,Vigevano,2004-01-24,2012-02-02,45.326401500542325,8.860310253579987,NA,NA
6632,604,PM_tot,Tavazzano Con Villavesco - Via Cascina Bagnolo,85,LO,Tavazzano Con Villavesco,2000-01-13,2005-03-24,45.33036100181227,9.414644726627262,SB,A
9857,673,NO2,Voghera - Via Pozzoni,90,PV,Voghera,2005-07-28,NA,44.99954598914026,9.008437381815693,UB,B
5614,527,Sulfur_dioxide,Castano Primo - Via Olimpiadi,175,MI,Castano Primo,1989-12-18,2009-12-04,45.54594268367404,8.776104584370271,NA,NA
5630,531,Sulfur_dioxide,Pioltello Limito,114,MI,Pioltello,1989-05-07,NA,45.48363035323249,9.327360033215145,UB,Agg_MI
10547,1269,PM2.5,Dalmine - Via Verdi,207,BG,Dalmine,2010-02-26,NA,45.64970251236247,9.601223338785262,UB,Agg_BG
5712,510,Ozone,Inzago - Viale Gramsci,138,MI,Inzago,2001-02-24,2018-01-01,45.539768856661,9.486885367436152,NA,NA
12629,705,Benzo_a_pyrene,Milano Pascal Città Studi,122,MI,Milano,2008-04-02,NA,45.47899606168744,9.235491038497502,UB,Agg_MI
6781,652,NO2,Brescia - Via Turati,154,BS,Brescia,1999-01-13,NA,45.539529434955995,10.231785907477223,UT,Agg_BS
12589,669,Arsenic,Brescia Villaggio Sereno,70,BS,Brescia,2008-04-01,NA,45.513038818653754,10.19194188877931,UB,Agg_BS
9971,679,CO,Valmadrera - Via Pozzi,247,LC,Valmadrera,2006-02-16,NA,45.842207261022544,9.351658166127958,SB,A
6761,649,NO2,Brescia - Via Broletto,149,BS,Brescia,1983-01-01,NA,45.540057846971386,10.222818449274216,UT,Agg_BS
5957,628,Ozone,Cremona - Piazza Libertà,61,CR,Cremona,1992-11-01,2006-04-04,45.13737896273478,10.032359066275932,NA,NA
6665,565,Ozone,Cantù - Via Meucci,369,CO,Cantù,2005-01-17,NA,45.73083672267427,9.125734327022926,SB,Agg_MI
17127,501,Benzene,Milano - Via Marche,129,MI,Milano,2012-09-13,NA,45.49631644365102,9.190933555313624,UT,Agg_MI
5851,559,CO,Somma Lombardo - Via Facchinetti,210,VA,Somma Lombardo,2000-03-20,2012-01-04,45.649537127292405,8.71269145828479,NA,NA
9874,502,PM2.5,Milano - Via Juvara,122,MI,Milano,2005-11-22,2007-06-11,45.473225708577175,9.222315138737468,NA,NA
5640,516,Sulfur_dioxide,Robecchetto Con Induno - Via Pertini,135,MI,Robecchetto Con Induno,1982-03-08,2010-01-18,45.51782219008838,8.766562109244964,NA,NA
10396,674,PM2.5,Monza - Via Machiavelli,162,MB,Monza,2008-12-19,NA,45.58026348442243,9.273573092713274,UB,Agg_MI
10507,1269,NO2,Dalmine - Via Verdi,207,BG,Dalmine,2010-02-12,NA,45.64970251236247,9.601223338785262,UB,Agg_BG
5722,547,Ozone,Milano Parco Lambro,123,MI,Milano,1995-05-03,2018-01-01,45.499583690483405,9.247326889507654,NA,NA
10166,703,Benzene,Schivenoglia - Via Malpasso,NA,MN,Schivenoglia,2006-11-29,NA,45.016877820755425,11.07609463264049,RB,B
6230,565,NOx,Cantù - Via Meucci,369,CO,Cantù,1994-07-01,NA,45.73083672267427,9.125734327022926,SB,Agg_MI
6804,654,Ozone,Sarezzo - Via Minelli,269,BS,Sarezzo,2004-03-12,NA,45.64962671224069,10.205090218837002,UB,Agg_BS
10355,516,CO,Robecchetto Con Induno - Via Pertini,135,MI,Robecchetto Con Induno,2007-02-28,2017-01-01,45.51782219008838,8.766562109244964,NA,NA
6270,602,NOx,Melegnano - Via Predabissi,83,MI,Melegnano,2000-01-13,NA,45.35428575070997,9.329243424113708,NA,NA
6904,596,Ozone,Osio Sotto - Via Per Levate,182,BG,Osio Sotto,2004-09-08,NA,45.62055567939559,9.611737821812373,SB,Agg_BG
9880,674,CO,Monza - Via Machiavelli,162,MB,Monza,2005-10-21,NA,45.58026348442243,9.273573092713274,UB,Agg_MI
10451,1265,NOx,Lodi San Alberto,76,LO,Lodi,2009-08-03,NA,45.302783503095775,9.495273696926324,UB,A
6623,574,PM_tot,Lecco - Via Amendola,214,LC,Lecco,1991-02-17,1999-11-01,45.850191194578535,9.395577066893223,UT,A
6925,571,PM10,Bormio - Via Monte Braulio,1225,SO,Bormio,2003-04-18,NA,46.46952397132585,10.375432759159036,UB,C
6689,642,CO,Pavia - Via Folperti,77,PV,Pavia,2002-06-01,2012-01-04,45.19467609907785,9.164638300630086,UB,A
6318,505,NOx,Legnano - Via Diaz,199,MI,Legnano,1990-01-10,2018-07-30,45.596133932132915,8.91881399306327,NA,NA
6891,667,Ozone,Marmirolo Bosco Fontana,22,MN,Marmirolo,2003-01-01,2018-01-01,45.20817903938493,10.74263625117323,NA,NA
5627,505,Sulfur_dioxide,Legnano - Via Diaz,199,MI,Legnano,1973-11-20,2011-02-08,45.596133932132915,8.91881399306327,NA,NA
5628,539,Sulfur_dioxide,Milano - Via Liguria,115,MI,Milano,1991-08-14,1999-05-05,45.443857653564926,9.167944501742676,UT,Agg_MI
5538,535,NO2,Lacchiarella - Via Molise,97,MI,Lacchiarella,1999-03-19,2018-07-30,45.32451741284727,9.134517264199278,NA,NA
10285,706,NOx,Lecco - Via Sora,272,LC,Lecco,2007-06-28,NA,45.86374884127965,9.399950344681852,UB,A
6798,654,NO2,Sarezzo - Via Minelli,269,BS,Sarezzo,1990-02-18,NA,45.64962671224069,10.205090218837002,UB,Agg_BS
6614,584,PM_tot,Bergamo - Via Garibaldi,249,BG,Bergamo,1994-06-15,2005-10-21,45.69568034432694,9.66124914606551,UT,Agg_BG
5746,557,Ozone,Lonate Pozzolo - Via Veneto,204,VA,Lonate Pozzolo,1996-12-13,2005-08-17,45.59402351710858,8.7407965765392,NA,NA
5840,543,CO,Vimercate - Via Dell'Ospedale,194,MB,Vimercate,1994-12-23,2011-07-01,45.614920870442226,9.368396161785157,NA,NA
6860,661,Sulfur_dioxide,Rezzato - Via De Gasperi,147,BS,Rezzato,1992-08-05,2003-09-17,45.51570829484459,10.336240422996532,SI,Agg_BS
12625,705,Arsenic,Milano Pascal Città Studi,122,MI,Milano,2008-04-01,NA,45.47899606168744,9.235491038497502,UB,Agg_MI
12029,706,PM2.5,Lecco - Via Sora,272,LC,Lecco,2000-12-31,NA,45.86374884127965,9.399950344681852,UB,A
10354,516,PM10,Robecchetto Con Induno - Via Pertini,135,MI,Robecchetto Con Induno,2008-06-27,2017-01-01,45.51782219008838,8.766562109244964,NA,NA
12675,1264,Cadmium,Sondrio - Via Paribelli,290,SO,Sondrio,2008-04-01,NA,46.167852440665115,9.879209924469903,UB,D
6618,588,PM_tot,Tavernola Bergamasca - Via Riva Di Sotto,191,BG,Tavernola Bergamasca,1990-08-08,2004-03-30,45.71629992411727,10.044765999368437,SI,C
5528,525,NO2,Corsico - Viale Italia,119,MI,Corsico,1989-10-30,2018-07-30,45.43610851009912,9.097410841871474,NA,NA
12669,703,Cadmium,Schivenoglia - Via Malpasso,NA,MN,Schivenoglia,2008-02-23,NA,45.016877820755425,11.07609463264049,RB,B
12686,633,Cadmium,Soresina - Via Landriani,70,CR,Soresina,2008-04-01,NA,45.28397715446764,9.863398419993635,ST,B
6415,628,NOx,Cremona - Piazza Libertà,61,CR,Cremona,2002-01-01,2006-04-04,45.13737896273478,10.032359066275932,NA,NA
5672,586,Sulfur_dioxide,Costa Volpino - Via Nazionale,192,BG,Costa Volpino,1993-07-26,2003-06-03,45.82715793876258,10.09706172418631,NA,NA
20497,1801,Benzene,Brescia - Via Tartaglia,151,BS,Brescia,NA,NA,45.542647891822845,10.211205215118259,UT,Agg_BS
10457,1266,NOx,Bertonico - Via Moro,65,LO,Bertonico,2009-08-03,NA,45.23349364130374,9.666250375296032,RB,B
6912,546,PM10,Magenta - Via Turati,137,MI,Magenta,1998-02-25,NA,45.462415791106615,8.880210433125571,UT,A
5958,629,NO2,Crema - Via XI Febbraio,79,CR,Crema,1992-11-01,NA,45.366309078194334,9.703945513613167,SB,B
17163,655,Benzene,Darfo Boario Terme - Via De Amicis,221,BS,Darfo Boario Terme,2012-10-05,NA,45.87460210989037,10.17735680898138,SB,D
5948,625,NO2,Casalmaggiore - Via Volta,23,CR,Casalmaggiore,1996-05-19,2007-02-21,44.980660403835316,10.427376916159512,NA,NA
6338,545,NOx,Motta Visconti - Via De Gasperi,100,MI,Motta Visconti,1998-03-17,NA,45.281956197427846,8.988562726793255,SB,B
10043,687,PM10,Ferno - Via Di Dio,215,VA,Ferno,2006-11-29,NA,45.61924377994763,8.756970445453431,UB,A
10280,705,Sulfur_dioxide,Milano Pascal Città Studi,122,MI,Milano,2007-06-16,NA,45.47899606168744,9.235491038497502,UB,Agg_MI
5660,590,Sulfur_dioxide,Ponte San Pietro - Via Moiolo,225,BG,Ponte San Pietro,1990-07-04,2006-06-20,45.696081938463465,9.587784018279269,NA,NA
17122,548,PM2.5,Milano - Via Senato,118,MI,Milano,2012-09-04,NA,45.470499014097,9.197460360112531,UT,Agg_MI
5810,602,CO,Melegnano - Via Predabissi,83,MI,Melegnano,2000-01-13,NA,45.35428575070997,9.329243424113708,NA,NA
5963,631,NO2,Piadena - Via Cavour,30,CR,Piadena,1992-11-30,2018-07-30,45.12979322367744,10.379831668522419,NA,NA
6272,601,NOx,Montanaso Lombardo SP202 ,84,LO,Montanaso Lombardo,2000-01-13,2017-01-01,45.33613100905199,9.45255388178171,NA,NA
6807,655,Sulfur_dioxide,Darfo Boario Terme - Via De Amicis,221,BS,Darfo Boario Terme,1999-01-01,2009-11-13,45.87460210989037,10.17735680898138,SB,D
5552,549,NO2,Milano - Piazza Abbiategrasso,111,MI,Milano,1995-05-20,2018-07-30,45.432197305733055,9.182138919080943,NA,NA
6625,576,PM_tot,Merate - Via Madonna Di Loreto,279,LC,Merate,1991-02-17,1999-11-01,45.69795198970243,9.406190938686596,UT,Agg_MI
5839,507,CO,Villasanta - Via Volta,176,MB,Villasanta,1990-02-14,2010-09-22,45.608621349658364,9.307118451572562,NA,NA
12574,693,PM2.5,Sannazzaro De Burgondi - Via Traversi,85,PV,Sannazzaro De Burgondi,2013-01-07,NA,45.10276627684137,8.90417452771467,UI,B
6650,543,PM_tot,Vimercate - Via Dell'Ospedale,194,MB,Vimercate,1995-02-10,1998-02-04,45.614920870442226,9.368396161785157,NA,NA
6641,501,PM_tot,Milano - Via Marche,129,MI,Milano,1976-01-22,1996-04-01,45.49631644365102,9.190933555313624,UT,Agg_MI
17086,569,Lead,Sondrio - Via Mazzini,307,SO,Sondrio,2008-04-01,2011-12-26,46.16796681227828,9.87014407497457,UT,D
10020,685,Sulfur_dioxide,Calusco D'Adda - Via Caduti Sul Lavoro,273,BG,Calusco D'Adda,2006-06-30,NA,45.69042907854514,9.484260927647789,SB,A
6288,551,NOx,Arconate - Via De Gasperi,182,MI,Arconate,1999-01-20,NA,45.54851735741946,8.847321929216262,SB,A
10269,502,Ammonia,Milano - Via Juvara,122,MI,Milano,2007-03-28,2007-06-11,45.473225708577175,9.222315138737468,NA,NA
5579,576,NO2,Merate - Via Madonna Di Loreto,279,LC,Merate,1991-02-18,NA,45.69795198970243,9.406190938686596,UT,Agg_MI
9976,679,PM10,Valmadrera - Via Pozzi,247,LC,Valmadrera,2006-02-11,NA,45.842207261022544,9.351658166127958,SB,A
6651,503,PM_tot,Milano - Piazza Zavattari,122,MI,Milano,1990-05-11,1999-08-01,45.47606340509791,9.141786267186658,NA,NA
9740,604,PM10,Tavazzano Con Villavesco - Via Cascina Bagnolo,85,LO,Tavazzano Con Villavesco,2005-04-05,NA,45.33036100181227,9.414644726627262,SB,A
5637,549,Sulfur_dioxide,Milano - Piazza Abbiategrasso,111,MI,Milano,1995-05-20,2003-03-06,45.432197305733055,9.182138919080943,NA,NA
5955,628,NO2,Cremona - Piazza Libertà,61,CR,Cremona,1992-11-01,2006-04-04,45.13737896273478,10.032359066275932,NA,NA
12609,546,Cadmium,Magenta - Via Turati,137,MI,Magenta,2008-04-15,NA,45.462415791106615,8.880210433125571,UT,A
6967,669,CO,Brescia Villaggio Sereno,70,BS,Brescia,2004-04-12,2012-01-04,45.513038818653754,10.19194188877931,UB,Agg_BS
9891,552,PM10,Varese - Via Vidoletti,425,VA,Varese,2006-05-01,2010-04-01,45.83690077655548,8.80392612667495,UB,A
6871,663,NO2,Mantova - Via Ariosto,18,MN,Mantova,2003-01-01,NA,45.14526012578896,10.80332595007927,UI,A
6380,572,NOx,Morbegno - Via Cortivacci,262,SO,Morbegno,1999-01-13,NA,46.132282960003735,9.566179893984474,UB,D
5606,603,NO2,Castiraga Vidardo - Via Craxi,74,LO,Castiraga Vidardo,2000-01-13,2018-01-01,45.26232519992153,9.400281323067924,NA,NA
10548,1269,PM10,Dalmine - Via Verdi,207,BG,Dalmine,2010-02-26,NA,45.64970251236247,9.601223338785262,UB,Agg_BG
20455,501,BlackCarbon,Milano - Via Marche,129,MI,Milano,2020-11-25,NA,45.49631644365102,9.190933555313624,UT,Agg_MI
5709,512,Ozone,Carate Brianza - Via De Gasperi,250,MB,Carate Brianza,1995-02-15,2018-01-01,45.672024734078455,9.234591661788048,NA,NA
6286,530,NOx,Agrate Brianza - Via Ferrario,162,MB,Agrate Brianza,1990-02-13,2018-07-30,45.57578475922807,9.354105650819204,NA,NA
6921,564,PM10,Erba - Via Battisti,279,CO,Erba,2009-06-13,NA,45.808573806922965,9.221779204488435,UB,A
9835,664,PM10,Mantova - Piazza Gramsci,18,MN,Mantova,2004-12-28,NA,45.151743379576594,10.78140770009565,UT,A
5596,593,NO2,Ciserano - Corso Europa,159,BG,Ciserano,1994-11-30,2018-07-30,45.591548429500484,9.606127731575759,NA,NA
10483,1265,PM10,Lodi San Alberto,76,LO,Lodi,2009-08-03,NA,45.302783503095775,9.495273696926324,UB,A
5681,577,Sulfur_dioxide,Calolziocorte - Corso Dante,215,LC,Calolziocorte,1993-06-01,2002-11-28,45.80209550514092,9.429467320277878,NA,NA
5598,595,NO2,Filago - Via Don Milani,190,BG,Filago,1992-03-06,NA,45.63386450908066,9.556084255790864,UB,Agg_BG
5696,606,Sulfur_dioxide,San Giuliano Milanese - Via Milano,97,MI,San Giuliano Milanese,2000-01-13,2015-12-15,45.39619462552717,9.282700075557845,UT,A
10288,706,Ozone,Lecco - Via Sora,272,LC,Lecco,2007-06-28,NA,45.86374884127965,9.399950344681852,UB,A
5518,515,NO2,Pero SS Sempione,141,MI,Pero,1986-12-10,2018-07-30,45.509852266792514,9.089972020337333,NA,NA
6384,570,NOx,Tirano Viale Italia,439,SO,Tirano,1993-11-01,2018-07-30,46.21774621439411,10.156470232146322,NA,NA
5822,505,CO,Legnano - Via Diaz,199,MI,Legnano,1990-01-19,2011-07-27,45.596133932132915,8.91881399306327,NA,NA
12020,1297,Ozone,Spinadesco - Via Battisti,48,CR,Spinadesco,2011-02-04,NA,45.150468869856816,9.930596472272326,SI,A
5539,536,NO2,Arese - Via Matteotti,157,MI,Arese,1991-10-16,2018-07-30,45.543433254501636,9.080725831284644,NA,NA
6400,560,NOx,Varese - Via Copelli,383,VA,Varese,2003-08-07,NA,45.816973233263674,8.820240707158211,UT,A
20042,703,Ammonia,Schivenoglia - Via Malpasso,NA,MN,Schivenoglia,2013-10-24,NA,45.016877820755425,11.07609463264049,RB,B
5732,573,Ozone,Colico - Via La Madoneta,229,LC,Colico,1996-11-06,NA,46.1381409051264,9.384687247651794,SB,C
12605,655,Benzo_a_pyrene,Darfo Boario Terme - Via De Amicis,221,BS,Darfo Boario Terme,2008-04-17,NA,45.87460210989037,10.17735680898138,SB,D
6264,608,NOx,Codogno - Via Trento,59,LO,Codogno,2000-01-13,NA,45.15937280234111,9.69814824935254,UT,B
10258,626,Ammonia,Corte De Cortesi Con Cignone - Via Villa Strada Forca,57,CR,Corte De Cortesi Con Cignone,2006-11-22,NA,45.27848755478839,10.006202391204335,RI,B
5818,529,CO,Cinisello Balsamo - Via Lincoln,149,MI,Cinisello Balsamo,1988-09-29,2011-07-04,45.55232578741208,9.227764233272634,UT,Agg_MI
9995,682,CO,Ferrera Erbognone Eni,88,PV,Ferrera Erbognone,2006-01-21,NA,45.11350314482957,8.874064848882607,RI,B
5508,505,NO2,Legnano - Via Diaz,199,MI,Legnano,1990-01-10,2018-07-30,45.596133932132915,8.91881399306327,NA,NA
6328,501,NOx,Milano - Via Marche,129,MI,Milano,1980-09-18,NA,45.49631644365102,9.190933555313624,UT,Agg_MI
10587,1266,Ammonia,Bertonico - Via Moro,65,LO,Bertonico,2009-03-04,NA,45.23349364130374,9.666250375296032,RB,B
6654,569,PM_tot,Sondrio - Via Mazzini,307,SO,Sondrio,1993-10-28,1999-12-06,46.16796681227828,9.87014407497457,UT,D
9861,673,Ozone,Voghera - Via Pozzoni,90,PV,Voghera,2005-07-05,NA,44.99954598914026,9.008437381815693,UB,B
5769,566,PM10,Olgiate Comasco - Via Roma,404,CO,Olgiate Comasco,1995-02-01,2010-04-15,45.78389725453634,8.966397886811311,NA,NA
5577,574,NO2,Lecco - Via Amendola,214,LC,Lecco,1991-02-17,NA,45.850191194578535,9.395577066893223,UT,A
5841,503,CO,Milano - Piazza Zavattari,122,MI,Milano,1989-04-05,2018-07-30,45.47606340509791,9.141786267186658,NA,NA
6762,649,Sulfur_dioxide,Brescia - Via Broletto,149,BS,Brescia,1983-01-01,2000-06-06,45.540057846971386,10.222818449274216,UT,Agg_BS
6198,589,NOx,Nembro - Via Locatelli,309,BG,Nembro,1991-06-07,2007-03-14,45.743036830343144,9.760535572770022,NA,NA
10581,1274,NO2,Perledo - Piazza Della Stazione,212,LC,Perledo,2010-09-01,NA,46.01582830438376,9.286409208680807,RB,C
10036,673,Benzene,Voghera - Via Pozzoni,90,PV,Voghera,2005-07-28,NA,44.99954598914026,9.008437381815693,UB,B
10511,1269,CO,Dalmine - Via Verdi,207,BG,Dalmine,2010-02-12,NA,45.64970251236247,9.601223338785262,UB,Agg_BG
20496,1801,PM10,Brescia - Via Tartaglia,151,BS,Brescia,NA,NA,45.542647891822845,10.211205215118259,UT,Agg_BS
5820,525,CO,Corsico - Viale Italia,119,MI,Corsico,1990-12-18,2018-07-30,45.43610851009912,9.097410841871474,NA,NA
10484,1266,PM10,Bertonico - Via Moro,65,LO,Bertonico,2009-08-03,NA,45.23349364130374,9.666250375296032,RB,B
30165,669,Ozone,Brescia Villaggio Sereno,70,BS,Brescia,2013-12-13,NA,45.513038818653754,10.19194188877931,UB,Agg_BS
6274,598,NOx,San Rocco Al Porto - Via Matteotti,50,LO,San Rocco Al Porto,2002-01-24,NA,45.081986696978625,9.70078817718398,SB,B
10028,685,PM2.5,Calusco D'Adda - Via Caduti Sul Lavoro,273,BG,Calusco D'Adda,2006-06-30,NA,45.69042907854514,9.484260927647789,SB,A
9961,669,PM10,Brescia Villaggio Sereno,70,BS,Brescia,2006-01-01,NA,45.513038818653754,10.19194188877931,UB,Agg_BS
5950,626,NO2,Corte De Cortesi Con Cignone - Via Villa Strada Forca,57,CR,Corte De Cortesi Con Cignone,1996-05-17,NA,45.27848755478839,10.006202391204335,RI,B
5800,563,CO,Fino Mornasco  - SP27 Casa Dell'Alpino,304,CO,Fino Mornasco,1991-12-20,2012-01-04,45.74804440954574,9.042592844183936,NA,NA
9877,674,NO2,Monza - Via Machiavelli,162,MB,Monza,2005-10-21,NA,45.58026348442243,9.273573092713274,UB,Agg_MI
5604,601,NO2,Montanaso Lombardo SP202 ,84,LO,Montanaso Lombardo,2000-01-13,2017-01-01,45.33613100905199,9.45255388178171,NA,NA
6852,660,NO2,Ospitaletto - Via XXV Aprile,155,BS,Ospitaletto,1990-02-16,2018-07-30,45.55325139975436,10.084916143968398,NA,NA
10583,1274,NOx,Perledo - Piazza Della Stazione,212,LC,Perledo,2010-09-01,NA,46.01582830438376,9.286409208680807,RB,C
12598,609,Lead,Casirate D'Adda - Via Cimitero,108,BG,Casirate D'Adda,2008-04-24,NA,45.49822713394494,9.556232262351761,RB,A
6611,595,PM_tot,Filago - Via Don Milani,190,BG,Filago,1991-12-07,2004-10-13,45.63386450908066,9.556084255790864,UB,Agg_BG
6626,575,PM_tot,Nibionno - Via Della Chiesa,310,LC,Nibionno,1991-02-17,1999-12-28,45.751111261617815,9.265020964805544,NA,NA
6340,547,NOx,Milano Parco Lambro,123,MI,Milano,1995-04-21,2018-07-30,45.499583690483405,9.247326889507654,NA,NA
5708,536,Ozone,Arese - Via Matteotti,157,MI,Arese,1995-10-03,2018-01-01,45.543433254501636,9.080725831284644,NA,NA
10025,685,Ozone,Calusco D'Adda - Via Caduti Sul Lavoro,273,BG,Calusco D'Adda,2006-06-30,NA,45.69042907854514,9.484260927647789,SB,A
9875,674,NOx,Monza - Via Machiavelli,162,MB,Monza,2005-10-21,NA,45.58026348442243,9.273573092713274,UB,Agg_MI
12685,633,Arsenic,Soresina - Via Landriani,70,CR,Soresina,2008-04-01,NA,45.28397715446764,9.863398419993635,ST,B
5960,629,Ozone,Crema - Via XI Febbraio,79,CR,Crema,1996-04-28,NA,45.366309078194334,9.703945513613167,SB,B
6298,529,NOx,Cinisello Balsamo - Via Lincoln,149,MI,Cinisello Balsamo,1988-11-24,2017-01-01,45.55232578741208,9.227764233272634,UT,Agg_MI
6594,613,NO2,Spino D'Adda SP1,80,CR,Spino D'Adda,2000-01-13,2006-04-13,45.389753164229845,9.489402571088535,NA,NA
6646,514,PM_tot,Rho - Via Buon Gesù,152,MI,Rho,1991-10-11,1999-06-09,45.523425662003476,9.044599871111005,UB,Agg_MI
5601,598,NO2,San Rocco Al Porto - Via Matteotti,50,LO,San Rocco Al Porto,2002-01-24,NA,45.081986696978625,9.70078817718398,SB,B
6937,597,PM10,Lallio - Via Sforzatica,212,BG,Lallio,2000-05-24,2017-01-01,45.65966391792855,9.618568761257565,NA,NA
5794,584,CO,Bergamo - Via Garibaldi,249,BG,Bergamo,1994-06-16,NA,45.69568034432694,9.66124914606551,UT,Agg_BG
6356,504,NOx,Sesto San Giovanni - Via Cesare Da Sesto,139,MI,Sesto San Giovanni,1980-12-18,NA,45.53476576509224,9.236107923411636,UT,Agg_MI
5532,529,NO2,Cinisello Balsamo - Via Lincoln,149,MI,Cinisello Balsamo,1988-11-24,NA,45.55232578741208,9.227764233272634,UT,Agg_MI
6947,643,PM10,Pavia - Piazza Minerva,77,PV,Pavia,2002-06-06,NA,45.18632908049483,9.146666041286784,UT,A
9807,671,NOx,Mantova Tridolino,22,MN,Mantova,2006-04-23,2017-01-01,45.153319585785574,10.859263911962309,NA,NA
10475,1267,NO2,Turano Lodigiano - Via Gramsci,65,LO,Turano Lodigiano,2009-08-03,2017-03-31,45.25028308918456,9.62125819274314,NA,NA
12688,633,Benzo_a_pyrene,Soresina - Via Landriani,70,CR,Soresina,2008-04-02,NA,45.28397715446764,9.863398419993635,ST,B
5605,602,NO2,Melegnano - Via Predabissi,83,MI,Melegnano,2000-01-13,NA,45.35428575070997,9.329243424113708,NA,NA
5854,552,CO,Varese - Via Vidoletti,425,VA,Varese,1991-12-23,2012-01-04,45.83690077655548,8.80392612667495,UB,A
6350,516,NOx,Robecchetto Con Induno - Via Pertini,135,MI,Robecchetto Con Induno,1992-12-07,2017-01-01,45.51782219008838,8.766562109244964,NA,NA
5705,570,Sulfur_dioxide,Tirano Viale Italia,439,SO,Tirano,1993-11-01,2009-01-01,46.21774621439411,10.156470232146322,NA,NA
6841,659,NO2,Odolo - Via Praes,349,BS,Odolo,2013-12-13,NA,45.64604963372525,10.38929530279196,SB,C
5517,514,NO2,Rho - Via Buon Gesù,152,MI,Rho,1991-10-03,NA,45.523425662003476,9.044599871111005,UB,Agg_MI
10054,691,Sulfur_dioxide,Ferrera Erbognone Agip - Via Indipendenza,89,PV,Ferrera Erbognone,2007-01-01,2017-01-01,45.11082363436007,8.86874423650247,NA,NA
10078,695,NOx,Ponti Sul Mincio - Via San Martino,113,MN,Ponti Sul Mincio,2006-12-20,NA,45.41277169168634,10.683357343786835,SB,B
5704,569,Sulfur_dioxide,Sondrio - Via Mazzini,307,SO,Sondrio,1993-11-01,NA,46.16796681227828,9.87014407497457,UT,D
5789,591,CO,Seriate - Via Garibaldi,256,BG,Seriate,1991-10-31,2011-09-13,45.68635606439914,9.714947917631529,NA,NA
6935,592,PM10,Treviglio - Piazza Insurrezione,191,BG,Treviglio,2000-02-03,NA,45.51933498138716,9.592009994888425,UT,Agg_BG
6693,642,PM_tot,Pavia - Via Folperti,77,PV,Pavia,2002-06-01,2011-02-03,45.19467609907785,9.164638300630086,UB,A
10081,695,Ozone,Ponti Sul Mincio - Via San Martino,113,MN,Ponti Sul Mincio,2007-02-06,NA,45.41277169168634,10.683357343786835,SB,B
6701,643,NO2,Pavia - Piazza Minerva,77,PV,Pavia,2002-03-03,NA,45.18632908049483,9.146666041286784,UT,A
5530,527,NO2,Castano Primo - Via Olimpiadi,175,MI,Castano Primo,1990-01-01,2017-01-01,45.54594268367404,8.776104584370271,NA,NA
6803,654,NOx,Sarezzo - Via Minelli,269,BS,Sarezzo,1990-01-01,NA,45.64962671224069,10.205090218837002,UB,Agg_BS
5689,607,Sulfur_dioxide,Abbadia Cerreto - Via Fanfulla,64,LO,Abbadia Cerreto,2000-01-13,2008-04-11,45.309502269282255,9.585790416120414,RB,B
5787,589,CO,Nembro - Via Locatelli,309,BG,Nembro,1994-12-01,2007-03-14,45.743036830343144,9.760535572770022,NA,NA
5655,557,Sulfur_dioxide,Lonate Pozzolo - Via Veneto,204,VA,Lonate Pozzolo,1996-12-05,2005-08-17,45.59402351710858,8.7407965765392,NA,NA
5521,518,NO2,Galliate Strada Del Piaggio,153,NO,Galliate,1992-12-07,2017-01-04,45.46804407930967,8.73676932023362,NA,NA
10145,701,CO,Ostiglia - Via Colombo,14,MN,Ostiglia,2006-11-29,2017-01-01,45.073311155731965,11.137034007299844,NA,NA
5835,504,CO,Sesto San Giovanni - Via Cesare Da Sesto,139,MI,Sesto San Giovanni,1990-04-29,NA,45.53476576509224,9.236107923411636,UT,Agg_MI
5716,541,Ozone,Limbiate - Via Turati,181,MB,Limbiate,1995-01-17,2018-01-01,45.597443498230305,9.125948942472387,NA,NA
6648,517,PM_tot,Turbigo Vicolo Dello Sport,141,MI,Turbigo,1990-01-01,2007-02-26,45.52655086994247,8.736496578379215,UB,A
10141,701,NOx,Ostiglia - Via Colombo,14,MN,Ostiglia,2006-11-29,2017-01-01,45.073311155731965,11.137034007299844,NA,NA
5949,625,Ozone,Casalmaggiore - Via Volta,23,CR,Casalmaggiore,1996-05-19,2007-02-21,44.980660403835316,10.427376916159512,NA,NA
12673,1264,Nikel,Sondrio - Via Paribelli,290,SO,Sondrio,2008-04-01,NA,46.167852440665115,9.879209924469903,UB,D
12661,681,Nikel,Moggio - Località Penscei,1194,LC,Moggio,2008-06-14,NA,45.91278752030292,9.497538167653424,RB,C
6857,660,Ozone,Ospitaletto - Via XXV Aprile,155,BS,Ospitaletto,2000-06-29,2004-02-25,45.55325139975436,10.084916143968398,NA,NA
5791,593,CO,Ciserano - Corso Europa,159,BG,Ciserano,1994-11-29,2011-09-12,45.591548429500484,9.606127731575759,NA,NA
10177,704,NOx,Sermide E Felonica - Via Dalla Chiesa,11,MN,Sermide E Felonica,2006-11-29,2017-01-01,45.004613731114105,11.294014707706845,NA,NA
6939,600,PM10,Lodi - Via Vignati,80,LO,Lodi,2000-12-05,NA,45.30601298752377,9.48526286320174,UT,A
6952,654,PM10,Sarezzo - Via Minelli,269,BS,Sarezzo,2000-06-23,NA,45.64962671224069,10.205090218837002,UB,Agg_BS
6943,630,PM10,Crema - Via Indipendenza,78,CR,Crema,1999-10-28,2007-04-03,45.369413822391465,9.677268708195667,NA,NA
10326,708,NO2,Parona - Via Della Miseria,112,PV,Parona,2007-10-01,NA,45.281935610357905,8.754334594539825,UI,B
9797,670,Benzene,Mantova San Agnese,22,MN,Mantova,2005-09-30,NA,45.16056833010576,10.79556411370788,UB,A
6226,587,NOx,Casnigo - Via Europa,514,BG,Casnigo,1989-11-08,2005-05-05,45.81463898053286,9.867700614310943,NA,NA
10454,1265,Ozone,Lodi San Alberto,76,LO,Lodi,2009-08-03,NA,45.302783503095775,9.495273696926324,UB,A
6899,668,Sulfur_dioxide,Mantova Lunetta,25,MN,Mantova,2003-01-01,2018-07-30,45.157985278189244,10.823931433968092,NA,NA
5711,525,Ozone,Corsico - Viale Italia,119,MI,Corsico,1990-01-18,2018-01-01,45.43610851009912,9.097410841871474,NA,NA
5559,556,NO2,Gallarate - Piazza San Lorenzo,240,VA,Gallarate,1991-06-26,2018-07-30,45.65745982503037,8.797570832831466,NA,NA
5678,563,Sulfur_dioxide,Fino Mornasco  - SP27 Casa Dell'Alpino,304,CO,Fino Mornasco,1991-02-18,2007-11-29,45.74804440954574,9.042592844183936,NA,NA
20401,571,Benzene,Bormio - Via Monte Braulio,1225,SO,Bormio,2017-02-21,NA,46.46952397132585,10.375432759159036,UB,C
12017,1297,NO2,Spinadesco - Via Battisti,48,CR,Spinadesco,2011-02-08,NA,45.150468869856816,9.930596472272326,SI,A
6675,567,PM_tot,Chiavenna - Via Cerletti,333,SO,Chiavenna,1993-10-27,2002-10-02,46.320803497826546,9.395590913257395,NA,NA
12696,609,Nikel,Casirate D'Adda - Via Cimitero,108,BG,Casirate D'Adda,2008-04-24,NA,45.49822713394494,9.556232262351761,RB,A
10350,532,Ozone,Cuggiono - Via Languria,156,MI,Cuggiono,2007-02-28,2017-01-01,45.5014842949991,8.804453762398397,NA,NA
6638,505,PM_tot,Legnano - Via Diaz,199,MI,Legnano,1990-03-12,2010-11-11,45.596133932132915,8.91881399306327,NA,NA
10097,697,NO2,Borgofranco Sul Po - Località Bonizzo,14,MN,Borgofranco Sul Po,2006-11-29,NA,45.04650153816735,11.18093581912755,SB,B
9772,600,Benzene,Lodi - Via Vignati,80,LO,Lodi,2005-04-23,NA,45.30601298752377,9.48526286320174,UT,A
6322,541,NOx,Limbiate - Via Turati,181,MB,Limbiate,1994-11-24,2018-07-30,45.597443498230305,9.125948942472387,NA,NA
6316,537,NOx,Lainate - Via Mengato,176,MI,Lainate,1991-09-25,2013-09-12,45.56753666798259,9.025796665025974,NA,NA
12663,681,Cadmium,Moggio - Località Penscei,1194,LC,Moggio,2008-06-14,NA,45.91278752030292,9.497538167653424,RB,C
10301,574,Benzene,Lecco - Via Amendola,214,LC,Lecco,2006-11-07,NA,45.850191194578535,9.395577066893223,UT,A
6425,631,CO,Piadena - Via Cavour,30,CR,Piadena,1996-05-19,2012-01-04,45.12979322367744,10.379831668522419,NA,NA
5673,587,Sulfur_dioxide,Casnigo - Via Europa,514,BG,Casnigo,1989-11-08,2003-06-03,45.81463898053286,9.867700614310943,NA,NA
6789,653,CO,Brescia - Via Ziziola,125,BS,Brescia,1997-10-15,2018-07-30,45.51455919056731,10.218463502801265,NA,NA
5815,536,CO,Arese - Via Matteotti,157,MI,Arese,1991-10-15,2011-07-22,45.543433254501636,9.080725831284644,NA,NA
12684,633,Nikel,Soresina - Via Landriani,70,CR,Soresina,2008-04-01,NA,45.28397715446764,9.863398419993635,ST,B
9927,677,PM10,Cremona - Via Fatebenefratelli,43,CR,Cremona,2006-04-08,NA,45.14254063221695,10.043836158369393,UB,A
5842,571,CO,Bormio - Via Monte Braulio,1225,SO,Bormio,1993-11-02,NA,46.46952397132585,10.375432759159036,UB,C
12614,670,Arsenic,Mantova San Agnese,22,MN,Mantova,2008-02-19,NA,45.16056833010576,10.79556411370788,UB,A
5505,502,NO2,Milano - Via Juvara,122,MI,Milano,1977-05-06,2007-06-11,45.473225708577175,9.222315138737468,NA,NA
12639,548,Cadmium,Milano - Via Senato,118,MI,Milano,2008-07-09,NA,45.470499014097,9.197460360112531,UT,Agg_MI
6224,586,NOx,Costa Volpino - Via Nazionale,192,BG,Costa Volpino,1993-07-26,2018-07-30,45.82715793876258,10.09706172418631,NA,NA
10176,703,PM2.5,Schivenoglia - Via Malpasso,NA,MN,Schivenoglia,2006-12-13,NA,45.016877820755425,11.07609463264049,RB,B
6767,649,Ozone,Brescia - Via Broletto,149,BS,Brescia,1983-01-01,2004-02-27,45.540057846971386,10.222818449274216,UT,Agg_BS
5568,565,NO2,Cantù - Via Meucci,369,CO,Cantù,1994-02-15,NA,45.73083672267427,9.125734327022926,SB,Agg_MI
10329,708,NOx,Parona - Via Della Miseria,112,PV,Parona,2007-10-01,NA,45.281935610357905,8.754334594539825,UI,B
5753,553,PM10,Saronno - Via Marconi,211,VA,Saronno,2000-11-22,2003-12-12,45.62396968592561,9.037226525673523,NA,NA
6414,628,CO,Cremona - Piazza Libertà,61,CR,Cremona,1994-11-14,2006-04-04,45.13737896273478,10.032359066275932,NA,NA
6248,574,NOx,Lecco - Via Amendola,214,LC,Lecco,1991-01-01,NA,45.850191194578535,9.395577066893223,UT,A
6292,527,NOx,Castano Primo - Via Olimpiadi,175,MI,Castano Primo,1990-01-01,2017-01-01,45.54594268367404,8.776104584370271,NA,NA
5650,503,Sulfur_dioxide,Milano - Piazza Zavattari,122,MI,Milano,1968-01-12,2010-12-14,45.47606340509791,9.141786267186658,NA,NA
12692,560,Cadmium,Varese - Via Copelli,383,VA,Varese,2008-04-01,NA,45.816973233263674,8.820240707158211,UT,A
6649,507,PM_tot,Villasanta - Via Volta,176,MB,Villasanta,1990-02-27,2008-07-24,45.608621349658364,9.307118451572562,NA,NA
6394,559,NOx,Somma Lombardo - Via Facchinetti,210,VA,Somma Lombardo,2000-03-21,2018-07-30,45.649537127292405,8.71269145828479,NA,NA
6902,601,Ozone,Montanaso Lombardo SP202 ,84,LO,Montanaso Lombardo,2004-08-04,2017-01-01,45.33613100905199,9.45255388178171,NA,NA
5590,587,NO2,Casnigo - Via Europa,514,BG,Casnigo,1989-11-08,2005-05-05,45.81463898053286,9.867700614310943,NA,NA
6314,535,NOx,Lacchiarella - Via Molise,97,MI,Lacchiarella,1999-03-19,2018-07-30,45.32451741284727,9.134517264199278,NA,NA
6284,511,NOx,Abbiategrasso - Via Serafino Dell'Uomo,118,MI,Abbiategrasso,1998-01-23,2018-07-30,45.395404490146184,8.913416566778292,NA,NA
6910,542,PM10,Meda - Via Gagarin,222,MB,Meda,1998-02-06,NA,45.66176219189168,9.156643984551597,UT,Agg_MI
6948,644,PM10,Vigevano - Via Petrarca,107,PV,Vigevano,2002-06-06,2013-09-19,45.326401500542325,8.860310253579987,NA,NA
5549,546,NO2,Magenta - Via Turati,137,MI,Magenta,1995-04-22,NA,45.462415791106615,8.880210433125571,UT,A
20528,708,PM2.5,Parona - Via Della Miseria,112,PV,Parona,2021-06-01,NA,45.281935610357905,8.754334594539825,UI,B
10286,706,NO2,Lecco - Via Sora,272,LC,Lecco,2007-06-27,NA,45.86374884127965,9.399950344681852,UB,A
5542,539,NO2,Milano - Via Liguria,115,MI,Milano,1991-10-24,NA,45.443857653564926,9.167944501742676,UT,Agg_MI
9852,672,NO2,Cornale - Via Libertà,74,PV,Cornale,2005-07-29,NA,45.04007657202963,8.914144599002409,RB,B
6719,644,CO,Vigevano - Via Petrarca,107,PV,Vigevano,2004-01-24,2013-09-19,45.326401500542325,8.860310253579987,NA,NA
12583,1303,Ammonia,Cremona - Via Gerre Borghi,36,CR,Cremona,2012-01-01,2017-01-01,45.10953938027215,10.069230734956498,NA,NA
10085,695,PM2.5,Ponti Sul Mincio - Via San Martino,113,MN,Ponti Sul Mincio,2007-01-12,NA,45.41277169168634,10.683357343786835,SB,B
6872,663,Sulfur_dioxide,Mantova - Via Ariosto,18,MN,Mantova,2003-01-01,NA,45.14526012578896,10.80332595007927,UI,A
5600,597,NO2,Lallio - Via Sforzatica,212,BG,Lallio,2000-04-13,2017-01-01,45.65966391792855,9.618568761257565,NA,NA
6280,604,NOx,Tavazzano Con Villavesco - Via Cascina Bagnolo,85,LO,Tavazzano Con Villavesco,2000-01-13,NA,45.33036100181227,9.414644726627262,SB,A
5831,515,CO,Pero SS Sempione,141,MI,Pero,1991-05-10,2018-07-30,45.509852266792514,9.089972020337333,NA,NA
6290,536,NOx,Arese - Via Matteotti,157,MI,Arese,1991-10-22,2018-07-30,45.543433254501636,9.080725831284644,NA,NA
5956,628,Sulfur_dioxide,Cremona - Piazza Libertà,61,CR,Cremona,1992-11-01,2006-04-04,45.13737896273478,10.032359066275932,NA,NA
6954,661,PM10,Rezzato - Via De Gasperi,147,BS,Rezzato,1997-01-27,NA,45.51570829484459,10.336240422996532,SI,Agg_BS
12619,542,Nikel,Meda - Via Gagarin,222,MB,Meda,2008-04-18,NA,45.66176219189168,9.156643984551597,UT,Agg_MI
5625,502,Sulfur_dioxide,Milano - Via Juvara,122,MI,Milano,1968-01-12,2007-07-18,45.473225708577175,9.222315138737468,NA,NA
6620,577,PM_tot,Calolziocorte - Corso Dante,215,LC,Calolziocorte,1993-06-01,2000-03-08,45.80209550514092,9.429467320277878,NA,NA
5827,501,CO,Milano - Via Marche,129,MI,Milano,1989-04-05,NA,45.49631644365102,9.190933555313624,UT,Agg_MI
30163,669,NO2,Brescia Villaggio Sereno,70,BS,Brescia,2013-12-13,NA,45.513038818653754,10.19194188877931,UB,Agg_BS
5697,613,Sulfur_dioxide,Spino D'Adda SP1,80,CR,Spino D'Adda,2000-01-13,2006-04-13,45.389753164229845,9.489402571088535,NA,NA
6629,600,PM_tot,Lodi - Via Vignati,80,LO,Lodi,1999-12-30,2001-01-08,45.30601298752377,9.48526286320174,UT,A
5802,566,CO,Olgiate Comasco - Via Roma,404,CO,Olgiate Comasco,1995-02-01,2010-04-15,45.78389725453634,8.966397886811311,NA,NA
10399,583,PM2.5,Bergamo - Via Meucci,249,BG,Bergamo,2008-12-20,NA,45.69103740547214,9.643650579461385,UB,Agg_BG
17082,569,Benzo_a_pyrene,Sondrio - Via Mazzini,307,SO,Sondrio,2008-04-22,2011-12-30,46.16796681227828,9.87014407497457,UT,D
12687,633,Lead,Soresina - Via Landriani,70,CR,Soresina,2008-04-01,NA,45.28397715446764,9.863398419993635,ST,B
6832,657,Ozone,Lonato Del Garda - Via Del Marchesino,180,BS,Lonato Del Garda,2004-03-14,NA,45.463753136210265,10.480772043571283,UB,A
17159,633,PM2.5,Soresina - Via Landriani,70,CR,Soresina,2012-10-11,NA,45.28397715446764,9.863398419993635,ST,B
6642,542,PM_tot,Meda - Via Gagarin,222,MB,Meda,1995-11-01,1998-02-04,45.66176219189168,9.156643984551597,UT,Agg_MI
6827,657,Sulfur_dioxide,Lonato Del Garda - Via Del Marchesino,180,BS,Lonato Del Garda,1990-02-16,2004-08-18,45.463753136210265,10.480772043571283,UB,A
6382,569,NOx,Sondrio - Via Mazzini,307,SO,Sondrio,1993-11-01,NA,46.16796681227828,9.87014407497457,UT,D
5541,538,NO2,Settimo Milanese - Via Della Libertà,132,MI,Settimo Milanese,1992-05-27,2018-07-30,45.480268785554635,9.056862031759728,NA,NA
9915,591,PM2.5,Seriate - Via Garibaldi,256,BG,Seriate,2005-11-28,2018-07-30,45.68635606439914,9.714947917631529,NA,NA
5823,539,CO,Milano - Via Liguria,115,MI,Milano,1991-10-20,NA,45.443857653564926,9.167944501742676,UT,Agg_MI
6956,528,PM10,Milano Verziere,116,MI,Milano,2001-11-01,NA,45.463346740666545,9.195324807668857,UT,Agg_MI
12664,681,Lead,Moggio - Località Penscei,1194,LC,Moggio,2008-06-14,NA,45.91278752030292,9.497538167653424,RB,C
12616,670,Lead,Mantova San Agnese,22,MN,Mantova,2008-02-19,NA,45.16056833010576,10.79556411370788,UB,A
12570,561,PM2.5,Como - Via Cattaneo,202,CO,Como,2011-09-23,NA,45.81504286011291,9.06697137484454,UT,Agg_MI
6845,659,NOx,Odolo - Via Praes,349,BS,Odolo,1990-10-08,NA,45.64604963372525,10.38929530279196,SB,C
10501,655,PM10,Darfo Boario Terme - Via De Amicis,221,BS,Darfo Boario Terme,2008-12-23,NA,45.87460210989037,10.17735680898138,SB,D
5576,573,NO2,Colico - Via La Madoneta,229,LC,Colico,1996-11-05,NA,46.1381409051264,9.384687247651794,SB,C
17162,681,PM2.5,Moggio - Località Penscei,1194,LC,Moggio,2012-10-20,NA,45.91278752030292,9.497538167653424,RB,C
12693,560,Lead,Varese - Via Copelli,383,VA,Varese,2008-04-01,NA,45.816973233263674,8.820240707158211,UT,A
12588,669,Nikel,Brescia Villaggio Sereno,70,BS,Brescia,2008-04-01,NA,45.513038818653754,10.19194188877931,UB,Agg_BS
6348,509,NOx,Rivolta D'Adda - Via Beccaria,101,CR,Rivolta D'Adda,1991-01-12,2018-01-01,45.46855301694732,9.511345333837518,NA,NA
17085,569,Cadmium,Sondrio - Via Mazzini,307,SO,Sondrio,2008-04-01,2011-12-26,46.16796681227828,9.87014407497457,UT,D
5674,588,Sulfur_dioxide,Tavernola Bergamasca - Via Riva Di Sotto,191,BG,Tavernola Bergamasca,1990-08-09,2011-09-12,45.71629992411727,10.044765999368437,SI,C
6655,555,PM_tot,Busto Arsizio - Via Magenta,222,VA,Busto Arsizio,1991-05-25,2006-06-19,45.610736040012604,8.850115752092071,NA,NA
17083,569,Nikel,Sondrio - Via Mazzini,307,SO,Sondrio,2008-04-01,2011-12-26,46.16796681227828,9.87014407497457,UT,D
10584,1274,Ozone,Perledo - Piazza Della Stazione,212,LC,Perledo,2010-09-01,NA,46.01582830438376,9.286409208680807,RB,C
12028,642,PM10,Pavia - Via Folperti,77,PV,Pavia,2011-02-04,NA,45.19467609907785,9.164638300630086,UB,A
5616,609,Sulfur_dioxide,Casirate D'Adda - Via Cimitero,108,BG,Casirate D'Adda,1984-12-14,2008-02-22,45.49822713394494,9.556232262351761,RB,A
5631,546,Sulfur_dioxide,Magenta - Via Turati,137,MI,Magenta,1995-04-22,NA,45.462415791106615,8.880210433125571,UT,A
6262,603,NOx,Castiraga Vidardo - Via Craxi,74,LO,Castiraga Vidardo,2000-01-13,NA,45.26232519992153,9.400281323067924,NA,NA
9978,609,PM2.5,Casirate D'Adda - Via Cimitero,108,BG,Casirate D'Adda,2005-11-11,NA,45.49822713394494,9.556232262351761,RB,A
5515,512,NO2,Carate Brianza - Via De Gasperi,250,MB,Carate Brianza,1994-10-27,2018-07-30,45.672024734078455,9.234591661788048,NA,NA
10290,706,PM10,Lecco - Via Sora,272,LC,Lecco,2000-12-31,NA,45.86374884127965,9.399950344681852,UB,A
6766,649,NOx,Brescia - Via Broletto,149,BS,Brescia,1992-08-05,NA,45.540057846971386,10.222818449274216,UT,Agg_BS
6059,513,Benzene,Trezzo Sulladda - Via Nenni,199,MI,Trezzo Sulladda,2001-04-02,2002-02-19,45.61369175877737,9.50812248390592,NA,NA
6344,549,NOx,Milano - Piazza Abbiategrasso,111,MI,Milano,1995-05-20,2018-07-30,45.432197305733055,9.182138919080943,NA,NA
6619,561,PM_tot,Como - Via Cattaneo,202,CO,Como,1991-02-17,2000-01-02,45.81504286011291,9.06697137484454,UT,Agg_MI
10001,683,NOx,Cassano D'Adda - Via Milano,133,MI,Cassano D'Adda,2006-02-17,NA,45.52647254585104,9.515980483627096,UT,A
30160,655,NO2,Darfo Boario Terme - Via De Amicis,221,BS,Darfo Boario Terme,2013-12-13,NA,45.87460210989037,10.17735680898138,SB,D
20488,564,PM2.5,Erba - Via Battisti,279,CO,Erba,NA,NA,45.808573806922965,9.221779204488435,UB,A
5849,556,CO,Gallarate - Piazza San Lorenzo,240,VA,Gallarate,1991-06-25,2012-01-04,45.65745982503037,8.797570832831466,NA,NA
5572,569,NO2,Sondrio - Via Mazzini,307,SO,Sondrio,1993-11-01,NA,46.16796681227828,9.87014407497457,UT,D
10449,560,PM2.5,Varese - Via Copelli,383,VA,Varese,2009-09-01,NA,45.816973233263674,8.820240707158211,UT,A
10413,1263,PM10,Villa Di Serio - Via Glera,280,BG,Villa Di Serio,2008-10-07,2018-07-30,45.73589144532835,9.738394788043442,NA,NA
6635,508,PM_tot,Cassano D'Adda - Via Di Vona,133,MI,Cassano D'Adda,1984-12-10,2005-11-14,45.52000867032165,9.512220968943545,NA,NA
20082,573,Ammonia,Colico - Via La Madoneta,229,LC,Colico,2013-11-20,NA,46.1381409051264,9.384687247651794,SB,C
10352,517,PM10,Turbigo Vicolo Dello Sport,141,MI,Turbigo,2008-01-01,NA,45.52655086994247,8.736496578379215,UB,A
12617,670,Benzo_a_pyrene,Mantova San Agnese,22,MN,Mantova,2008-02-19,NA,45.16056833010576,10.79556411370788,UB,A
5535,532,NO2,Cuggiono - Via Languria,156,MI,Cuggiono,1990-01-01,2017-01-01,45.5014842949991,8.804453762398397,NA,NA
6730,645,NO2,Voghera - Via Repubblica,100,PV,Voghera,2002-03-07,2012-10-16,44.98586313155348,9.007128842722402,NA,NA
10270,655,Ozone,Darfo Boario Terme - Via De Amicis,221,BS,Darfo Boario Terme,2007-01-01,NA,45.87460210989037,10.17735680898138,SB,D
6294,512,NOx,Carate Brianza - Via De Gasperi,250,MB,Carate Brianza,1994-10-27,2018-07-30,45.672024734078455,9.234591661788048,NA,NA
30129,631,Ammonia,Piadena - Via Cavour,30,CR,Piadena,2013-07-09,2014-03-27,45.12979322367744,10.379831668522419,NA,NA
12593,669,Benzo_a_pyrene,Brescia Villaggio Sereno,70,BS,Brescia,2008-04-18,NA,45.513038818653754,10.19194188877931,UB,Agg_BS
5730,564,Ozone,Erba - Via Battisti,279,CO,Erba,2009-01-01,NA,45.808573806922965,9.221779204488435,UB,A
6240,566,NOx,Olgiate Comasco - Via Roma,404,CO,Olgiate Comasco,1995-02-01,2010-04-15,45.78389725453634,8.966397886811311,NA,NA
10282,705,Ozone,Milano Pascal Città Studi,122,MI,Milano,2007-06-16,NA,45.47899606168744,9.235491038497502,UB,Agg_MI
12691,560,Arsenic,Varese - Via Copelli,383,VA,Varese,2008-04-01,NA,45.816973233263674,8.820240707158211,UT,A
5743,569,Ozone,Sondrio - Via Mazzini,307,SO,Sondrio,1993-11-01,2003-05-19,46.16796681227828,9.87014407497457,UT,D
5540,537,NO2,Lainate - Via Mengato,176,MI,Lainate,1991-09-25,2013-09-12,45.56753666798259,9.025796665025974,NA,NA
20494,1801,NO,Brescia - Via Tartaglia,151,BS,Brescia,NA,NA,45.542647891822845,10.211205215118259,UT,Agg_BS
6254,575,NOx,Nibionno - Via Della Chiesa,310,LC,Nibionno,1992-01-08,2018-07-30,45.751111261617815,9.265020964805544,NA,NA
6374,571,NOx,Bormio - Via Monte Braulio,1225,SO,Bormio,1993-11-01,NA,46.46952397132585,10.375432759159036,UB,C
5714,535,Ozone,Lacchiarella - Via Molise,97,MI,Lacchiarella,1998-09-17,2018-01-01,45.32451741284727,9.134517264199278,NA,NA
6931,583,PM10,Bergamo - Via Meucci,249,BG,Bergamo,2000-07-03,NA,45.69103740547214,9.643650579461385,UB,Agg_BG
5824,541,CO,Limbiate - Via Turati,181,MB,Limbiate,1994-11-23,2011-07-01,45.597443498230305,9.125948942472387,NA,NA
5740,567,Ozone,Chiavenna - Via Cerletti,333,SO,Chiavenna,1996-05-30,2018-01-01,46.320803497826546,9.395590913257395,NA,NA
12581,1303,Ozone,Cremona - Via Gerre Borghi,36,CR,Cremona,2012-01-01,2018-01-01,45.10953938027215,10.069230734956498,NA,NA
6881,665,Sulfur_dioxide,Viadana - Via Cavalli,37,MN,Viadana,2003-10-03,2011-12-29,44.92469404955067,10.517502067117825,UB,B
9804,670,NOx,Mantova San Agnese,22,MN,Mantova,2006-04-23,NA,45.16056833010576,10.79556411370788,UB,A
6888,666,Ozone,Porto Mantovano - Via Gianni Rodari,29,MN,Porto Mantovano,2004-06-01,2018-01-01,45.19554009017032,10.79726229869026,NA,NA
6392,557,NOx,Lonate Pozzolo - Via Veneto,204,VA,Lonate Pozzolo,1996-12-05,2018-07-30,45.59402351710858,8.7407965765392,NA,NA
12587,1303,NOx,Cremona - Via Gerre Borghi,36,CR,Cremona,2011-10-14,2017-01-01,45.10953938027215,10.069230734956498,NA,NA
12671,703,Benzo_a_pyrene,Schivenoglia - Via Malpasso,NA,MN,Schivenoglia,2008-02-22,NA,45.016877820755425,11.07609463264049,RB,B
5587,584,NO2,Bergamo - Via Garibaldi,249,BG,Bergamo,1994-06-21,NA,45.69568034432694,9.66124914606551,UT,Agg_BG
5607,604,NO2,Tavazzano Con Villavesco - Via Cascina Bagnolo,85,LO,Tavazzano Con Villavesco,2000-01-13,NA,45.33036100181227,9.414644726627262,SB,A
6396,553,NOx,Saronno - Via Marconi,211,VA,Saronno,1993-06-23,2003-12-03,45.62396968592561,9.037226525673523,NA,NA
10079,695,NO2,Ponti Sul Mincio - Via San Martino,113,MN,Ponti Sul Mincio,2006-12-20,NA,45.41277169168634,10.683357343786835,SB,B
6605,590,PM_tot,Ponte San Pietro - Via Moiolo,225,BG,Ponte San Pietro,1990-09-18,2000-01-28,45.696081938463465,9.587784018279269,NA,NA
10006,684,Sulfur_dioxide,Truccazzano - Via Fornasino,105,MI,Truccazzano,2006-02-17,2018-01-01,45.48455813667995,9.471348388974729,NA,NA
5531,528,NO2,Milano Verziere,116,MI,Milano,1988-11-24,NA,45.463346740666545,9.195324807668857,UT,Agg_MI
12604,655,Lead,Darfo Boario Terme - Via De Amicis,221,BS,Darfo Boario Terme,2008-04-18,NA,45.87460210989037,10.17735680898138,SB,D
10070,693,Sulfur_dioxide,Sannazzaro De Burgondi - Via Traversi,85,PV,Sannazzaro De Burgondi,2007-01-01,NA,45.10276627684137,8.90417452771467,UI,B
5547,544,NO2,Cormano - Via Edison,153,MI,Cormano,1994-10-24,NA,45.551041944372415,9.162613653151322,UB,Agg_MI
9872,673,PM10,Voghera - Via Pozzoni,90,PV,Voghera,2005-07-05,NA,44.99954598914026,9.008437381815693,UB,B
6814,656,Sulfur_dioxide,Gambara - Via Parma,47,BS,Gambara,1990-02-16,2012-01-04,45.24954362474624,10.299119496064078,SB,B
6880,665,NO2,Viadana - Via Cavalli,37,MN,Viadana,2003-10-25,NA,44.92469404955067,10.517502067117825,UB,B
9832,671,PM10,Mantova Tridolino,22,MN,Mantova,2004-12-28,2017-01-01,45.153319585785574,10.859263911962309,NA,NA
5652,558,Sulfur_dioxide,Busto Arsizio Accam,206,VA,Busto Arsizio,1998-12-06,NA,45.582894292717725,8.842165456706075,SB,Agg_MI
9896,609,NOx,Casirate D'Adda - Via Cimitero,108,BG,Casirate D'Adda,2005-11-10,NA,45.49822713394494,9.556232262351761,RB,A
5826,546,CO,Magenta - Via Turati,137,MI,Magenta,1995-04-22,NA,45.462415791106615,8.880210433125571,UT,A
6810,655,PM_tot,Darfo Boario Terme - Via De Amicis,221,BS,Darfo Boario Terme,1999-01-01,2004-07-15,45.87460210989037,10.17735680898138,SB,D
6924,570,PM10,Tirano Viale Italia,439,SO,Tirano,1999-12-15,2012-04-02,46.21774621439411,10.156470232146322,NA,NA
12611,546,Benzo_a_pyrene,Magenta - Via Turati,137,MI,Magenta,2008-04-15,NA,45.462415791106615,8.880210433125571,UT,A
5651,501,Sulfur_dioxide,Milano - Via Marche,129,MI,Milano,1973-11-07,1999-04-05,45.49631644365102,9.190933555313624,UT,Agg_MI
10149,701,PM10,Ostiglia - Via Colombo,14,MN,Ostiglia,2007-01-01,2017-01-01,45.073311155731965,11.137034007299844,NA,NA
6744,647,NO2,Breno - Via Don Putelli,342,BS,Breno,1992-06-09,2018-07-30,45.956830532998445,10.301058339435231,NA,NA
6909,536,PM10,Arese - Via Matteotti,157,MI,Arese,2002-01-18,2018-07-30,45.543433254501636,9.080725831284644,NA,NA
17039,583,Cadmium,Bergamo - Via Meucci,249,BG,Bergamo,2012-01-13,NA,45.69103740547214,9.643650579461385,UB,Agg_BG
5715,505,Ozone,Legnano - Via Diaz,199,MI,Legnano,1990-01-11,2018-01-01,45.596133932132915,8.91881399306327,NA,NA
5953,627,NO2,Cremona - Piazza Cadorna,39,CR,Cremona,1997-12-12,NA,45.13194691285173,10.015741513336042,UT,A
6840,658,NOx,Manerbio - Via Solferino,66,BS,Manerbio,1992-08-28,2015-03-03,45.34995949312804,10.144752235947312,NA,NA
6831,657,NOx,Lonato Del Garda - Via Del Marchesino,180,BS,Lonato Del Garda,1990-01-01,NA,45.463753136210265,10.480772043571283,UB,A
9890,674,PM10,Monza - Via Machiavelli,162,MB,Monza,2005-11-18,NA,45.58026348442243,9.273573092713274,UB,Agg_MI
6927,574,PM10,Lecco - Via Amendola,214,LC,Lecco,2000-05-12,NA,45.850191194578535,9.395577066893223,UT,A
10432,1264,NO2,Sondrio - Via Paribelli,290,SO,Sondrio,2009-01-04,NA,46.167852440665115,9.879209924469903,UB,D
9983,672,PM2.5,Cornale - Via Libertà,74,PV,Cornale,2006-02-02,NA,45.04007657202963,8.914144599002409,RB,B
9833,664,Benzene,Mantova - Piazza Gramsci,18,MN,Mantova,2005-05-16,NA,45.151743379576594,10.78140770009565,UT,A
5622,518,Sulfur_dioxide,Galliate Strada Del Piaggio,153,NO,Galliate,1982-03-08,2017-01-08,45.46804407930967,8.73676932023362,NA,NA
12668,703,Arsenic,Schivenoglia - Via Malpasso,NA,MN,Schivenoglia,2008-02-23,NA,45.016877820755425,11.07609463264049,RB,B
5739,571,Ozone,Bormio - Via Monte Braulio,1225,SO,Bormio,1996-05-29,NA,46.46952397132585,10.375432759159036,UB,C
9855,672,NOx,Cornale - Via Libertà,74,PV,Cornale,2005-07-29,NA,45.04007657202963,8.914144599002409,RB,B
6826,657,NO2,Lonato Del Garda - Via Del Marchesino,180,BS,Lonato Del Garda,1990-02-16,NA,45.463753136210265,10.480772043571283,UB,A
6837,658,NO2,Manerbio - Via Solferino,66,BS,Manerbio,1992-08-28,2015-03-03,45.34995949312804,10.144752235947312,NA,NA
10027,685,PM10,Calusco D'Adda - Via Caduti Sul Lavoro,273,BG,Calusco D'Adda,2006-06-30,NA,45.69042907854514,9.484260927647789,SB,A
5744,555,Ozone,Busto Arsizio - Via Magenta,222,VA,Busto Arsizio,1991-05-25,2018-01-01,45.610736040012604,8.850115752092071,NA,NA
5792,594,CO,Bergamo - Via Goisis,290,BG,Bergamo,1996-07-09,2018-07-30,45.715912469852206,9.688958745309764,NA,NA
10339,629,PM10,Crema - Via XI Febbraio,79,CR,Crema,2007-09-25,NA,45.366309078194334,9.703945513613167,SB,B
10169,703,CO,Schivenoglia - Via Malpasso,NA,MN,Schivenoglia,2006-11-29,NA,45.016877820755425,11.07609463264049,RB,B
10019,685,NO2,Calusco D'Adda - Via Caduti Sul Lavoro,273,BG,Calusco D'Adda,2006-06-30,NA,45.69042907854514,9.484260927647789,SB,A
6934,591,PM10,Seriate - Via Garibaldi,256,BG,Seriate,2000-01-28,2003-08-12,45.68635606439914,9.714947917631529,NA,NA
12667,703,Nikel,Schivenoglia - Via Malpasso,NA,MN,Schivenoglia,2008-02-23,NA,45.016877820755425,11.07609463264049,RB,B
6908,531,PM10,Pioltello Limito,114,MI,Pioltello,1998-02-21,NA,45.48363035323249,9.327360033215145,UB,Agg_MI
10279,705,NO2,Milano Pascal Città Studi,122,MI,Milano,2007-06-16,NA,45.47899606168744,9.235491038497502,UB,Agg_MI
6940,601,PM10,Montanaso Lombardo SP202 ,84,LO,Montanaso Lombardo,2004-07-30,2017-01-01,45.33613100905199,9.45255388178171,NA,NA
5813,511,CO,Abbiategrasso - Via Serafino Dell'Uomo,118,MI,Abbiategrasso,1997-11-02,2011-06-25,45.395404490146184,8.913416566778292,NA,NA
6647,504,PM_tot,Sesto San Giovanni - Via Cesare Da Sesto,139,MI,Sesto San Giovanni,1980-09-18,2002-09-01,45.53476576509224,9.236107923411636,UT,Agg_MI
6330,542,NOx,Meda - Via Gagarin,222,MB,Meda,1995-11-01,NA,45.66176219189168,9.156643984551597,UT,Agg_MI
5648,507,Sulfur_dioxide,Villasanta - Via Volta,176,MB,Villasanta,1976-12-18,1999-05-03,45.608621349658364,9.307118451572562,NA,NA
6402,552,NOx,Varese - Via Vidoletti,425,VA,Varese,1991-12-23,NA,45.83690077655548,8.80392612667495,UB,A
12621,542,Cadmium,Meda - Via Gagarin,222,MB,Meda,2008-04-18,NA,45.66176219189168,9.156643984551597,UT,Agg_MI
5961,630,NO2,Crema - Via Indipendenza,78,CR,Crema,1999-11-02,2007-04-03,45.369413822391465,9.677268708195667,NA,NA
12584,627,PM10,Cremona - Piazza Cadorna,39,CR,Cremona,2012-01-01,NA,45.13194691285173,10.015741513336042,UT,A
12602,655,Arsenic,Darfo Boario Terme - Via De Amicis,221,BS,Darfo Boario Terme,2008-04-18,NA,45.87460210989037,10.17735680898138,SB,D
17126,705,Benzene,Milano Pascal Città Studi,122,MI,Milano,2012-09-13,NA,45.47899606168744,9.235491038497502,UB,Agg_MI
20004,705,BlackCarbon,Milano Pascal Città Studi,122,MI,Milano,2013-09-30,NA,45.47899606168744,9.235491038497502,UB,Agg_MI
6411,627,CO,Cremona - Piazza Cadorna,39,CR,Cremona,1997-12-12,NA,45.13194691285173,10.015741513336042,UT,A
9802,670,NO2,Mantova San Agnese,22,MN,Mantova,2004-12-31,NA,45.16056833010576,10.79556411370788,UB,A
12662,681,Arsenic,Moggio - Località Penscei,1194,LC,Moggio,2008-06-14,NA,45.91278752030292,9.497538167653424,RB,C
5594,591,NO2,Seriate - Via Garibaldi,256,BG,Seriate,1991-10-31,2018-07-30,45.68635606439914,9.714947917631529,NA,NA
29001,501,BlackCarbon,Milano - Via Marche,129,MI,Milano,2013-05-27,2015-05-28,45.49631644365102,9.190933555313624,UT,Agg_MI
10002,683,CO,Cassano D'Adda - Via Milano,133,MI,Cassano D'Adda,2006-04-22,NA,45.52647254585104,9.515980483627096,UT,A
5742,572,Ozone,Morbegno - Via Cortivacci,262,SO,Morbegno,2003-05-24,NA,46.132282960003735,9.566179893984474,UB,D
6238,562,NOx,Mariano Comense - Viale Lombardia,256,CO,Mariano Comense,1991-01-01,2015-03-01,45.68865731381679,9.180657768638271,NA,NA
17295,558,Ozone,Busto Arsizio Accam,206,VA,Busto Arsizio,2013-01-26,NA,45.582894292717725,8.842165456706075,SB,Agg_MI
5798,561,CO,Como - Via Cattaneo,202,CO,Como,1991-02-17,NA,45.81504286011291,9.06697137484454,UT,Agg_MI
5819,544,CO,Cormano - Via Edison,153,MI,Cormano,1994-10-29,2011-12-31,45.551041944372415,9.162613653151322,UB,Agg_MI
10452,1265,NO2,Lodi San Alberto,76,LO,Lodi,2009-08-03,NA,45.302783503095775,9.495273696926324,UB,A
17037,583,Benzo_a_pyrene,Bergamo - Via Meucci,249,BG,Bergamo,2012-01-14,NA,45.69103740547214,9.643650579461385,UB,Agg_BG
9991,681,Ozone,Moggio - Località Penscei,1194,LC,Moggio,2006-07-12,NA,45.91278752030292,9.497538167653424,RB,C
5688,578,Sulfur_dioxide,Varenna - Via Polvani,220,LC,Varenna,1991-02-17,2001-03-20,46.00942283474235,9.285304059583972,NA,NA
17084,569,Arsenic,Sondrio - Via Mazzini,307,SO,Sondrio,2008-04-01,2011-12-26,46.16796681227828,9.87014407497457,UT,D
10438,1264,PM2.5,Sondrio - Via Paribelli,290,SO,Sondrio,2008-11-11,NA,46.167852440665115,9.879209924469903,UB,D
6342,515,NOx,Pero SS Sempione,141,MI,Pero,1986-12-10,2018-07-30,45.509852266792514,9.089972020337333,NA,NA
6587,574,Sulfur_dioxide,Lecco - Via Amendola,214,LC,Lecco,1991-02-17,NA,45.850191194578535,9.395577066893223,UT,A
5615,512,Sulfur_dioxide,Carate Brianza - Via De Gasperi,250,MB,Carate Brianza,1994-10-27,2003-10-21,45.672024734078455,9.234591661788048,NA,NA
10299,653,Benzene,Brescia - Via Ziziola,125,BS,Brescia,1997-10-15,2018-07-30,45.51455919056731,10.218463502801265,NA,NA
10463,1266,Ozone,Bertonico - Via Moro,65,LO,Bertonico,2009-08-03,NA,45.23349364130374,9.666250375296032,RB,B
9831,670,PM10,Mantova San Agnese,22,MN,Mantova,2004-12-30,NA,45.16056833010576,10.79556411370788,UB,A
6376,567,NOx,Chiavenna - Via Cerletti,333,SO,Chiavenna,1993-10-30,2018-07-30,46.320803497826546,9.395590913257395,NA,NA
10516,671,Sulfur_dioxide,Mantova Tridolino,22,MN,Mantova,2010-03-30,2017-01-01,45.153319585785574,10.859263911962309,NA,NA
9859,673,CO,Voghera - Via Pozzoni,90,PV,Voghera,2005-07-05,NA,44.99954598914026,9.008437381815693,UB,B
6200,590,NOx,Ponte San Pietro - Via Moiolo,225,BG,Ponte San Pietro,1990-07-04,2013-05-26,45.696081938463465,9.587784018279269,NA,NA
6232,561,NOx,Como - Via Cattaneo,202,CO,Como,1991-01-01,NA,45.81504286011291,9.06697137484454,UT,Agg_MI
5965,633,NO2,Soresina - Via Landriani,70,CR,Soresina,1999-10-16,NA,45.28397715446764,9.863398419993635,ST,B
5566,563,NO2,Fino Mornasco  - SP27 Casa Dell'Alpino,304,CO,Fino Mornasco,1992-01-08,2018-07-30,45.74804440954574,9.042592844183936,NA,NA
6953,659,PM10,Odolo - Via Praes,349,BS,Odolo,2000-06-23,NA,45.64604963372525,10.38929530279196,SB,C
5707,551,Ozone,Arconate - Via De Gasperi,182,MI,Arconate,1999-01-20,NA,45.54851735741946,8.847321929216262,SB,A
6745,647,Sulfur_dioxide,Breno - Via Don Putelli,342,BS,Breno,1992-06-09,2003-11-18,45.956830532998445,10.301058339435231,NA,NA
12623,542,Benzo_a_pyrene,Meda - Via Gagarin,222,MB,Meda,2008-04-18,NA,45.66176219189168,9.156643984551597,UT,Agg_MI
20523,583,Ammonia,Bergamo - Via Meucci,249,BG,Bergamo,NA,NA,45.69103740547214,9.643650579461385,UB,Agg_BG
5610,607,NO2,Abbadia Cerreto - Via Fanfulla,64,LO,Abbadia Cerreto,2000-01-13,NA,45.309502269282255,9.585790416120414,RB,B
10283,705,PM2.5,Milano Pascal Città Studi,122,MI,Milano,2007-03-29,NA,45.47899606168744,9.235491038497502,UB,Agg_MI
5558,555,NO2,Busto Arsizio - Via Magenta,222,VA,Busto Arsizio,1991-05-25,2018-07-30,45.610736040012604,8.850115752092071,NA,NA
6842,659,Sulfur_dioxide,Odolo - Via Praes,349,BS,Odolo,1990-10-08,2004-07-20,45.64604963372525,10.38929530279196,SB,C
6791,653,Ozone,Brescia - Via Ziziola,125,BS,Brescia,1997-10-15,2018-01-01,45.51455919056731,10.218463502801265,NA,NA
12694,560,Benzo_a_pyrene,Varese - Via Copelli,383,VA,Varese,2008-04-02,NA,45.816973233263674,8.820240707158211,UT,A
10506,1269,Benzene,Dalmine - Via Verdi,207,BG,Dalmine,2010-09-01,NA,45.64970251236247,9.601223338785262,UB,Agg_BG
5719,542,Ozone,Meda - Via Gagarin,222,MB,Meda,1995-11-01,NA,45.66176219189168,9.156643984551597,UT,Agg_MI
12531,1297,PM10,Spinadesco - Via Battisti,48,CR,Spinadesco,2011-02-16,NA,45.150468869856816,9.930596472272326,SI,A
5838,528,CO,Milano Verziere,116,MI,Milano,1988-09-30,2011-07-04,45.463346740666545,9.195324807668857,UT,Agg_MI
6326,546,NOx,Magenta - Via Turati,137,MI,Magenta,1995-04-22,NA,45.462415791106615,8.880210433125571,UT,A
6631,601,PM_tot,Montanaso Lombardo SP202 ,84,LO,Montanaso Lombardo,2000-01-13,2004-07-29,45.33613100905199,9.45255388178171,NA,NA
6784,652,NOx,Brescia - Via Turati,154,BS,Brescia,1999-10-01,NA,45.539529434955995,10.231785907477223,UT,Agg_BS
6364,517,NOx,Turbigo Vicolo Dello Sport,141,MI,Turbigo,1990-01-11,NA,45.52655086994247,8.736496578379215,UB,A
6252,576,NOx,Merate - Via Madonna Di Loreto,279,LC,Merate,1991-01-01,NA,45.69795198970243,9.406190938686596,UT,Agg_MI
5757,590,PM10,Ponte San Pietro - Via Moiolo,225,BG,Ponte San Pietro,2000-01-28,2002-10-17,45.696081938463465,9.587784018279269,NA,NA
6368,507,NOx,Villasanta - Via Volta,176,MB,Villasanta,1990-02-13,2010-06-20,45.608621349658364,9.307118451572562,NA,NA
10004,684,NOx,Truccazzano - Via Fornasino,105,MI,Truccazzano,2006-02-17,2018-01-01,45.48455813667995,9.471348388974729,NA,NA
10456,1265,PM2.5,Lodi San Alberto,76,LO,Lodi,2009-08-03,NA,45.302783503095775,9.495273696926324,UB,A
6813,656,NO2,Gambara - Via Parma,47,BS,Gambara,1990-02-16,NA,45.24954362474624,10.299119496064078,SB,B
12022,1297,PM2.5,Spinadesco - Via Battisti,48,CR,Spinadesco,2011-02-16,NA,45.150468869856816,9.930596472272326,SI,A
6905,502,PM10,Milano - Via Juvara,122,MI,Milano,1998-02-13,2007-06-11,45.473225708577175,9.222315138737468,NA,NA
9996,682,NOx,Ferrera Erbognone Eni,88,PV,Ferrera Erbognone,2006-01-21,NA,45.11350314482957,8.874064848882607,RI,B
5554,551,NO2,Arconate - Via De Gasperi,182,MI,Arconate,1999-01-20,NA,45.54851735741946,8.847321929216262,SB,A
10035,672,Benzene,Cornale - Via Libertà,74,PV,Cornale,2006-02-02,NA,45.04007657202963,8.914144599002409,RB,B
6302,525,NOx,Corsico - Viale Italia,119,MI,Corsico,1989-10-30,2018-07-30,45.43610851009912,9.097410841871474,NA,NA
5693,600,Sulfur_dioxide,Lodi - Via Vignati,80,LO,Lodi,1999-12-30,NA,45.30601298752377,9.48526286320174,UT,A
5507,504,NO2,Sesto San Giovanni - Via Cesare Da Sesto,139,MI,Sesto San Giovanni,1980-12-18,NA,45.53476576509224,9.236107923411636,UT,Agg_MI
5642,504,Sulfur_dioxide,Sesto San Giovanni - Via Cesare Da Sesto,139,MI,Sesto San Giovanni,1974-09-03,1999-05-04,45.53476576509224,9.236107923411636,UT,Agg_MI
6685,642,NO2,Pavia - Via Folperti,77,PV,Pavia,2002-06-01,NA,45.19467609907785,9.164638300630086,UB,A
5564,561,NO2,Como - Via Cattaneo,202,CO,Como,1991-02-17,NA,45.81504286011291,9.06697137484454,UT,Agg_MI
12624,705,Nikel,Milano Pascal Città Studi,122,MI,Milano,2008-04-01,NA,45.47899606168744,9.235491038497502,UB,Agg_MI
5646,517,Sulfur_dioxide,Turbigo Vicolo Dello Sport,141,MI,Turbigo,1982-03-08,NA,45.52655086994247,8.736496578379215,UB,A
5728,594,Ozone,Bergamo - Via Goisis,290,BG,Bergamo,1996-09-13,2018-01-01,45.715912469852206,9.688958745309764,NA,NA
10018,685,Benzene,Calusco D'Adda - Via Caduti Sul Lavoro,273,BG,Calusco D'Adda,2006-06-30,NA,45.69042907854514,9.484260927647789,SB,A
9998,683,Benzene,Cassano D'Adda - Via Milano,133,MI,Cassano D'Adda,2006-02-17,NA,45.52647254585104,9.515980483627096,UT,A
9856,672,Ozone,Cornale - Via Libertà,74,PV,Cornale,2005-07-29,NA,45.04007657202963,8.914144599002409,RB,B
6310,510,NOx,Inzago - Viale Gramsci,138,MI,Inzago,1991-01-16,2018-01-01,45.539768856661,9.486885367436152,NA,NA
5636,515,Sulfur_dioxide,Pero SS Sempione,141,MI,Pero,1982-05-26,2018-07-30,45.509852266792514,9.089972020337333,NA,NA
10300,660,CO,Ospitaletto - Via XXV Aprile,155,BS,Ospitaletto,2007-08-02,2018-07-30,45.55325139975436,10.084916143968398,NA,NA
5736,575,Ozone,Nibionno - Via Della Chiesa,310,LC,Nibionno,1996-11-07,2018-01-01,45.751111261617815,9.265020964805544,NA,NA
12600,609,Benzo_a_pyrene,Casirate D'Adda - Via Cimitero,108,BG,Casirate D'Adda,2008-04-24,NA,45.49822713394494,9.556232262351761,RB,A
5703,572,Sulfur_dioxide,Morbegno - Via Cortivacci,262,SO,Morbegno,1998-09-29,2008-08-06,46.132282960003735,9.566179893984474,UB,D
5574,571,NO2,Bormio - Via Monte Braulio,1225,SO,Bormio,1993-11-01,NA,46.46952397132585,10.375432759159036,UB,C
12676,1264,Benzo_a_pyrene,Sondrio - Via Paribelli,290,SO,Sondrio,2008-04-22,NA,46.167852440665115,9.879209924469903,UB,D
6951,649,PM10,Brescia - Via Broletto,149,BS,Brescia,2000-09-23,NA,45.540057846971386,10.222818449274216,UT,Agg_BS
10072,693,PM10,Sannazzaro De Burgondi - Via Traversi,85,PV,Sannazzaro De Burgondi,2007-01-01,NA,45.10276627684137,8.90417452771467,UI,B
6748,647,NOx,Breno - Via Don Putelli,342,BS,Breno,1992-06-09,2018-07-30,45.956830532998445,10.301058339435231,NA,NA
20358,504,PM2.5,Sesto San Giovanni - Via Cesare Da Sesto,139,MI,Sesto San Giovanni,2017-01-01,NA,45.53476576509224,9.236107923411636,UT,Agg_MI
6236,563,NOx,Fino Mornasco  - SP27 Casa Dell'Alpino,304,CO,Fino Mornasco,1992-01-09,2018-07-30,45.74804440954574,9.042592844183936,NA,NA
6722,644,PM_tot,Vigevano - Via Petrarca,107,PV,Vigevano,2002-05-29,2002-06-05,45.326401500542325,8.860310253579987,NA,NA
6405,625,NOx,Casalmaggiore - Via Volta,23,CR,Casalmaggiore,2002-01-01,2007-02-21,44.980660403835316,10.427376916159512,NA,NA
5624,510,Sulfur_dioxide,Inzago - Viale Gramsci,138,MI,Inzago,1989-12-14,2010-02-19,45.539768856661,9.486885367436152,NA,NA
6210,594,NOx,Bergamo - Via Goisis,290,BG,Bergamo,1996-09-14,2018-07-30,45.715912469852206,9.688958745309764,NA,NA
12637,548,Nikel,Milano - Via Senato,118,MI,Milano,2008-07-09,NA,45.470499014097,9.197460360112531,UT,Agg_MI
9860,673,NOx,Voghera - Via Pozzoni,90,PV,Voghera,2005-07-28,NA,44.99954598914026,9.008437381815693,UB,B
5656,553,Sulfur_dioxide,Saronno - Via Marconi,211,VA,Saronno,1993-06-25,2001-12-18,45.62396968592561,9.037226525673523,NA,NA
5575,572,NO2,Morbegno - Via Cortivacci,262,SO,Morbegno,1999-01-13,NA,46.132282960003735,9.566179893984474,UB,D
5701,567,Sulfur_dioxide,Chiavenna - Via Cerletti,333,SO,Chiavenna,1993-10-27,2007-01-18,46.320803497826546,9.395590913257395,NA,NA
6630,602,PM_tot,Melegnano - Via Predabissi,83,MI,Melegnano,2000-01-13,2011-01-01,45.35428575070997,9.329243424113708,NA,NA
6242,577,NOx,Calolziocorte - Corso Dante,215,LC,Calolziocorte,1994-11-29,2018-07-30,45.80209550514092,9.429467320277878,NA,NA
9918,664,NOx,Mantova - Piazza Gramsci,18,MN,Mantova,2004-06-08,NA,45.151743379576594,10.78140770009565,UT,A
20041,670,Ozone,Mantova San Agnese,22,MN,Mantova,2013-12-13,NA,45.16056833010576,10.79556411370788,UB,A
6885,666,NO2,Porto Mantovano - Via Gianni Rodari,29,MN,Porto Mantovano,2003-09-26,2018-07-30,45.19554009017032,10.79726229869026,NA,NA
10330,708,PM_tot,Parona - Via Della Miseria,112,PV,Parona,2007-08-08,2010-10-20,45.281935610357905,8.754334594539825,UI,B
5581,578,NO2,Varenna - Via Polvani,220,LC,Varenna,1991-02-21,2008-02-07,46.00942283474235,9.285304059583972,NA,NA
5551,548,NO2,Milano - Via Senato,118,MI,Milano,1995-04-21,NA,45.470499014097,9.197460360112531,UT,Agg_MI
5855,537,CO,Lainate - Via Mengato,176,MI,Lainate,1991-09-25,2011-07-13,45.56753666798259,9.025796665025974,NA,NA
5546,543,NO2,Vimercate - Via Dell'Ospedale,194,MB,Vimercate,1994-12-23,2018-07-30,45.614920870442226,9.368396161785157,NA,NA
10473,1267,NOx,Turano Lodigiano - Via Gramsci,65,LO,Turano Lodigiano,2009-08-03,2017-03-31,45.25028308918456,9.62125819274314,NA,NA
5570,567,NO2,Chiavenna - Via Cerletti,333,SO,Chiavenna,1993-10-28,2018-07-30,46.320803497826546,9.395590913257395,NA,NA
9963,508,PM10,Cassano D'Adda - Via Di Vona,133,MI,Cassano D'Adda,2006-01-01,2017-12-12,45.52000867032165,9.512220968943545,NA,NA
6268,600,NOx,Lodi - Via Vignati,80,LO,Lodi,1999-12-30,NA,45.30601298752377,9.48526286320174,UT,A
12627,705,Lead,Milano Pascal Città Studi,122,MI,Milano,2008-04-01,NA,45.47899606168744,9.235491038497502,UB,Agg_MI
5735,576,Ozone,Merate - Via Madonna Di Loreto,279,LC,Merate,1991-02-17,2022-03-15,45.69795198970243,9.406190938686596,UT,Agg_MI
20465,548,BlackCarbon,Milano - Via Senato,118,MI,Milano,NA,NA,45.470499014097,9.197460360112531,UT,Agg_MI
6398,554,NOx,Saronno - Via Santuario,212,VA,Saronno,1997-03-28,NA,45.627357052738944,9.026401379770974,UB,Agg_MI
5657,554,Sulfur_dioxide,Saronno - Via Santuario,212,VA,Saronno,1991-05-09,2001-03-24,45.627357052738944,9.026401379770974,UB,Agg_MI
5557,554,NO2,Saronno - Via Santuario,212,VA,Saronno,1997-03-28,NA,45.627357052738944,9.026401379770974,UB,Agg_MI
9873,554,PM2.5,Saronno - Via Santuario,212,VA,Saronno,2005-12-11,NA,45.627357052738944,9.026401379770974,UB,Agg_MI
20429,501,PM10,Milano - Via Marche,129,MI,Milano,2018-01-01,NA,45.49631644365102,9.190933555313624,UT,Agg_MI
5664,612,Sulfur_dioxide,Filago - Via Fermi,176,BG,Filago,1992-07-17,NA,45.6244564811923,9.556504350318216,NA,NA
10197,697,PM2.5,Borgofranco Sul Po - Località Bonizzo,14,MN,Borgofranco Sul Po,2006-12-01,NA,45.04650153816735,11.18093581912755,SB,B
5749,554,Ozone,Saronno - Via Santuario,212,VA,Saronno,1991-05-09,NA,45.627357052738944,9.026401379770974,UB,Agg_MI
6915,554,PM10,Saronno - Via Santuario,212,VA,Saronno,2003-12-16,NA,45.627357052738944,9.026401379770974,UB,Agg_MI
10323,707,NOx,Mortara - Via Trento,108,PV,Mortara,2007-10-04,2021-05-12,45.254728720788826,8.74415437971093,NA,NA
10321,707,NO2,Mortara - Via Trento,108,PV,Mortara,2007-10-04,2021-05-12,45.254728720788826,8.74415437971093,NA,NA
10346,707,PM2.5,Mortara - Via Trento,108,PV,Mortara,2007-12-01,2021-05-12,45.254728720788826,8.74415437971093,NA,NA
10324,707,Ozone,Mortara - Via Trento,108,PV,Mortara,2007-10-04,2021-05-12,45.254728720788826,8.74415437971093,NA,NA
5811,598,CO,San Rocco Al Porto - Via Matteotti,50,LO,San Rocco Al Porto,2002-02-25,2021-12-31,45.081986696978625,9.70078817718398,SB,B
20484,705,Ammonia,Milano Pascal Città Studi,122,MI,Milano,NA,NA,45.47899606168744,9.235491038497502,UB,Agg_MI
20529,501,PM2.5,Milano - Via Marche,129,MI,Milano,2022-01-01,NA,45.49631644365102,9.190933555313624,UT,Agg_MI
10039,687,CO,Ferno - Via Di Dio,215,VA,Ferno,2006-11-06,2022-12-31,45.61924377994763,8.756970445453431,UB,A
10023,685,CO,Calusco D'Adda - Via Caduti Sul Lavoro,273,BG,Calusco D'Adda,2006-06-30,2022-04-30,45.69042907854514,9.484260927647789,SB,A
5797,565,CO,Cantù - Via Meucci,369,CO,Cantù,1993-10-04,NA,45.73083672267427,9.125734327022926,SB,Agg_MI
9919,666,NOx,Porto Mantovano - Via Gianni Rodari,29,MN,Porto Mantovano,2004-06-05,2018-07-30,45.19554009017032,10.79726229869026,NA,NA
20005,548,BlackCarbon,Milano - Via Senato,118,MI,Milano,2013-09-30,NA,45.470499014097,9.197460360112531,UT,Agg_MI
10123,699,Ozone,Magnacavallo Campo Sportivo,11,MN,Magnacavallo,2006-11-29,2018-01-01,45.00514152134826,11.178388087213916,NA,NA
9924,677,CO,Cremona - Via Fatebenefratelli,43,CR,Cremona,2006-04-08,2022-12-31,45.14254063221695,10.043836158369393,UB,A
10159,702,Ozone,Pieve Di Coriano - Via Bugatte,16,MN,Pieve Di Coriano,2006-11-29,2018-01-01,45.03394281418463,11.116918109540054,NA,NA
10086,696,NOx,Monzambano Campo Sportivo,88,MN,Monzambano,2006-12-01,2020-08-01,45.38915354023782,10.690576265072083,NA,NA
5959,629,Sulfur_dioxide,Crema - Via XI Febbraio,79,CR,Crema,1992-11-01,2022-12-31,45.366309078194334,9.703945513613167,SB,B
5662,592,Sulfur_dioxide,Treviglio - Piazza Insurrezione,191,BG,Treviglio,1991-06-02,NA,45.51933498138716,9.592009994888425,UT,Agg_BG
17284,1374,Ammonia,Monza Parco,181,MB,Monza,2013-02-08,NA,45.60123219955139,9.27507265782848,SB,Agg_MI
5677,564,Sulfur_dioxide,Erba - Via Battisti,279,CO,Erba,2009-06-13,NA,45.808573806922965,9.221779204488435,UB,A
10087,696,Benzene,Monzambano Campo Sportivo,88,MN,Monzambano,2006-12-01,2020-08-01,45.38915354023782,10.690576265072083,NA,NA
6801,654,CO,Sarezzo - Via Minelli,269,BS,Sarezzo,1990-02-18,2023-01-03,45.64962671224069,10.205090218837002,UB,Agg_BS
10155,702,NO2,Pieve Di Coriano - Via Bugatte,16,MN,Pieve Di Coriano,2006-11-29,2018-01-01,45.03394281418463,11.116918109540054,NA,NA
5683,573,Sulfur_dioxide,Colico - Via La Madoneta,229,LC,Colico,1991-02-17,2023-02-09,46.1381409051264,9.384687247651794,SB,C
6418,629,CO,Crema - Via XI Febbraio,79,CR,Crema,1996-05-17,2022-12-31,45.366309078194334,9.703945513613167,SB,B
9888,583,CO,Bergamo - Via Meucci,249,BG,Bergamo,2005-03-11,NA,45.69103740547214,9.643650579461385,UB,Agg_BG
5691,608,Sulfur_dioxide,Codogno - Via Trento,59,LO,Codogno,2000-01-13,2022-12-31,45.15937280234111,9.69814824935254,UT,B
10098,697,Sulfur_dioxide,Borgofranco Sul Po - Località Bonizzo,14,MN,Borgofranco Sul Po,2006-11-29,2018-01-01,45.04650153816735,11.18093581912755,SB,B
10096,697,Benzene,Borgofranco Sul Po - Località Bonizzo,14,MN,Borgofranco Sul Po,2006-11-29,2018-01-01,45.04650153816735,11.18093581912755,SB,B
10153,702,NOx,Pieve Di Coriano - Via Bugatte,16,MN,Pieve Di Coriano,2006-11-29,2018-01-01,45.03394281418463,11.116918109540054,NA,NA
6862,661,CO,Rezzato - Via De Gasperi,147,BS,Rezzato,1999-11-24,2023-02-20,45.51570829484459,10.336240422996532,SI,Agg_BS
9923,677,Sulfur_dioxide,Cremona - Via Fatebenefratelli,43,CR,Cremona,2006-04-14,2022-12-31,45.14254063221695,10.043836158369393,UB,A
5807,576,CO,Merate - Via Madonna Di Loreto,279,LC,Merate,1991-12-24,NA,45.69795198970243,9.406190938686596,UT,Agg_MI
10117,699,NOx,Magnacavallo Campo Sportivo,11,MN,Magnacavallo,2006-11-29,2018-01-01,45.00514152134826,11.178388087213916,NA,NA
10119,699,NO2,Magnacavallo Campo Sportivo,11,MN,Magnacavallo,2006-11-29,2018-01-01,45.00514152134826,11.178388087213916,NA,NA
10088,696,NO2,Monzambano Campo Sportivo,88,MN,Monzambano,2006-12-01,2020-08-01,45.38915354023782,10.690576265072083,NA,NA
5844,572,CO,Morbegno - Via Cortivacci,262,SO,Morbegno,1999-01-13,NA,46.132282960003735,9.566179893984474,UB,D
10089,696,CO,Monzambano Campo Sportivo,88,MN,Monzambano,2006-12-01,2020-08-01,45.38915354023782,10.690576265072083,NA,NA
6764,649,CO,Brescia - Via Broletto,149,BS,Brescia,1983-01-01,2023-02-06,45.540057846971386,10.222818449274216,UT,Agg_BS
